"Station Name","TORONTO BUTTONVILLE A"
"Province","ONTARIO"
"Current Station Operator","NAV Canada"
"Latitude","43.86"
"Longitude","-79.37"
"Elevation","198.10"
"Climate Identifier","6158410"
"WMO Identifier","71639"
"TC Identifier","YKZ"
"All times are specified in Local Standard Time (LST). Add 1 hour to adjust for Daylight Saving Time where and when it is observed."

"Legend"
"E","Estimated"
"M","Missing"
"NA","Not Available"

"Date/Time","Year","Month","Day","Time","Temp (°C)","Temp Flag","Dew Point Temp (°C)","Dew Point Temp Flag","Rel Hum (%)","Rel Hum Flag","Wind Dir (10s deg)","Wind Dir Flag","Wind Spd (km/h)","Wind Spd Flag","Visibility (km)","Visibility Flag","Stn Press (kPa)","Stn Press Flag","Hmdx","Hmdx Flag","Wind Chill","Wind Chill Flag","Weather"
"2018-09-01 00:00","2018","09","01","00:00","15.0","","14.2","","95","","36","","3","","24.1","","99.81","","","","","","NA"
"2018-09-01 01:00","2018","09","01","01:00","14.5","","13.7","","95","","36","","3","","24.1","","99.84","","","","","","Mainly Clear"
"2018-09-01 02:00","2018","09","01","02:00","14.1","","13.4","","96","","33","","4","","24.1","","99.81","","","","","","NA"
"2018-09-01 03:00","2018","09","01","03:00","14.3","","13.7","","96","","34","","4","","24.1","","99.78","","","","","","NA"
"2018-09-01 04:00","2018","09","01","04:00","13.9","","13.6","","97","","35","","4","","24.1","","99.77","","","","","","Mostly Cloudy"
"2018-09-01 05:00","2018","09","01","05:00","14.2","","13.8","","97","","2","","4","","24.1","","99.75","","","","","","NA"
"2018-09-01 06:00","2018","09","01","06:00","15.7","","15.3","","97","","0","","1","","11.3","","99.76","","","","","","Fog"
"2018-09-01 07:00","2018","09","01","07:00","17.4","","17.1","","98","","6","","3","","0.4","","99.81","","","","","","Fog"
"2018-09-01 08:00","2018","09","01","08:00","18.9","","18.8","","99","","16","","7","","0.4","","99.80","","","","","","Fog"
"2018-09-01 09:00","2018","09","01","09:00","20.9","","20.3","","96","","14","","4","","19.3","","99.83","","29","","","","NA"
"2018-09-01 10:00","2018","09","01","10:00","22.9","","20.7","","87","","22","","6","","14.5","","99.87","","31","","","","Cloudy"
"2018-09-01 11:00","2018","09","01","11:00","25.1","","21.5","","80","","21","","10","","24.1","","99.79","","34","","","","NA"
"2018-09-01 12:00","2018","09","01","12:00","26.3","","21.5","","74","","18","","16","","24.1","","99.77","","35","","","","NA"
"2018-09-01 13:00","2018","09","01","13:00","27.0","","21.6","","72","","17","","16","","24.1","","99.72","","36","","","","Mostly Cloudy"
"2018-09-01 14:00","2018","09","01","14:00","27.4","","21.5","","70","","17","","18","","24.1","","99.65","","36","","","","NA"
"2018-09-01 15:00","2018","09","01","15:00","27.7","","21.4","","68","","17","","21","","24.1","","99.57","","36","","","","NA"
"2018-09-01 16:00","2018","09","01","16:00","27.4","","21.7","","71","","17","","14","","24.1","","99.51","","36","","","","Mostly Cloudy"
"2018-09-01 17:00","2018","09","01","17:00","26.6","","21.4","","73","","15","","15","","24.1","","99.49","","35","","","","NA"
"2018-09-01 18:00","2018","09","01","18:00","24.4","","21.2","","82","","14","","14","","24.1","","99.54","","33","","","","NA"
"2018-09-01 19:00","2018","09","01","19:00","23.2","","20.8","","86","","12","","12","","24.1","","99.51","","31","","","","Cloudy"
"2018-09-01 20:00","2018","09","01","20:00","22.8","","20.9","","89","","12","","9","","24.1","","99.51","","31","","","","NA"
"2018-09-01 21:00","2018","09","01","21:00","22.1","","20.8","","93","","9","","5","","24.1","","99.52","","30","","","","NA"
"2018-09-01 22:00","2018","09","01","22:00","22.1","","20.8","","93","","19","","3","","24.1","","99.55","","30","","","","Mainly Clear"
"2018-09-01 23:00","2018","09","01","23:00","22.5","","20.4","","88","","19","","7","","24.1","","99.50","","30","","","","NA"
"2018-09-02 00:00","2018","09","02","00:00","22.5","","20.5","","88","","18","","9","","24.1","","99.51","","30","","","","NA"
"2018-09-02 01:00","2018","09","02","01:00","22.1","","20.3","","89","","18","","6","","24.1","","99.49","","30","","","","Mostly Cloudy"
"2018-09-02 02:00","2018","09","02","02:00","22.3","","20.4","","89","","17","","5","","24.1","","99.48","","30","","","","NA"
"2018-09-02 03:00","2018","09","02","03:00","21.9","","20.7","","93","","19","","8","","24.1","","99.46","","30","","","","NA"
"2018-09-02 04:00","2018","09","02","04:00","21.9","","20.8","","93","","19","","8","","24.1","","99.44","","30","","","","Mostly Cloudy"
"2018-09-02 05:00","2018","09","02","05:00","21.6","","20.8","","95","","20","","7","","24.1","","99.51","","30","","","","NA"
"2018-09-02 06:00","2018","09","02","06:00","22.2","","21.1","","94","","22","","11","","24.1","","99.55","","31","","","","NA"
"2018-09-02 07:00","2018","09","02","07:00","22.9","","21.5","","92","","23","","6","","24.1","","99.60","","32","","","","Mostly Cloudy"
"2018-09-02 08:00","2018","09","02","08:00","23.7","","21.8","","89","","23","","10","","24.1","","99.65","","33","","","","NA"
"2018-09-02 09:00","2018","09","02","09:00","25.7","","22.7","","83","","20","","10","","24.1","","99.62","","36","","","","NA"
"2018-09-02 10:00","2018","09","02","10:00","26.4","","21.9","","76","","26","","12","","24.1","","99.65","","36","","","","Mostly Cloudy"
"2018-09-02 11:00","2018","09","02","11:00","27.7","","22.3","","72","","22","","18","","24.1","","99.64","","37","","","","NA"
"2018-09-02 12:00","2018","09","02","12:00","26.6","","23.0","","80","","18","","18","","24.1","","99.56","","37","","","","NA"
"2018-09-02 13:00","2018","09","02","13:00","26.8","","23.5","","82","","20","","15","","24.1","","99.56","","38","","","","Mostly Cloudy"
"2018-09-02 14:00","2018","09","02","14:00","28.0","","22.5","","72","","23","","15","","24.1","","99.53","","38","","","","NA"
"2018-09-02 15:00","2018","09","02","15:00","28.0","","22.1","","70","","21","","15","","24.1","","99.53","","37","","","","NA"
"2018-09-02 16:00","2018","09","02","16:00","27.0","","22.4","","76","","16","","10","","24.1","","99.51","","37","","","","Mostly Cloudy"
"2018-09-02 17:00","2018","09","02","17:00","26.4","","22.4","","78","","19","","9","","24.1","","99.51","","36","","","","NA"
"2018-09-02 18:00","2018","09","02","18:00","26.9","","22.3","","76","","17","","12","","24.1","","99.50","","37","","","","NA"
"2018-09-02 19:00","2018","09","02","19:00","25.7","","21.8","","79","","16","","8","","24.1","","99.52","","35","","","","Mostly Cloudy"
"2018-09-02 20:00","2018","09","02","20:00","25.1","","21.3","","79","","22","","8","","24.1","","99.55","","34","","","","NA"
"2018-09-02 21:00","2018","09","02","21:00","25.3","","21.4","","79","","23","","6","","24.1","","99.62","","34","","","","NA"
"2018-09-02 22:00","2018","09","02","22:00","25.2","","21.8","","81","","23","","6","","24.1","","99.66","","34","","","","Mainly Clear"
"2018-09-02 23:00","2018","09","02","23:00","24.9","","22.1","","84","","25","","4","","24.1","","99.66","","34","","","","NA"
"2018-09-03 00:00","2018","09","03","00:00","24.0","","21.9","","88","","19","","6","","24.1","","99.63","","33","","","","NA"
"2018-09-03 01:00","2018","09","03","01:00","23.5","","21.5","","89","","21","","7","","24.1","","99.66","","32","","","","Mainly Clear"
"2018-09-03 02:00","2018","09","03","02:00","22.7","","21.1","","90","","19","","6","","24.1","","99.65","","31","","","","NA"
"2018-09-03 03:00","2018","09","03","03:00","21.9","","20.9","","94","","18","","7","","24.1","","99.65","","30","","","","NA"
"2018-09-03 04:00","2018","09","03","04:00","21.9","","20.9","","94","","19","","7","","24.1","","99.62","","30","","","","Mostly Cloudy"
"2018-09-03 05:00","2018","09","03","05:00","22.7","","21.5","","92","","23","","8","","24.1","","99.67","","32","","","","NA"
"2018-09-03 06:00","2018","09","03","06:00","22.8","","21.4","","91","","22","","10","","24.1","","99.70","","32","","","","NA"
"2018-09-03 07:00","2018","09","03","07:00","23.8","","21.7","","88","","23","","10","","24.1","","99.78","","33","","","","Mostly Cloudy"
"2018-09-03 08:00","2018","09","03","08:00","25.4","","22.0","","81","","24","","15","","24.1","","99.79","","35","","","","NA"
"2018-09-03 09:00","2018","09","03","09:00","27.0","","22.0","","73","","26","","13","","24.1","","99.82","","36","","","","NA"
"2018-09-03 10:00","2018","09","03","10:00","28.0","","21.3","","67","","28","","16","","24.1","","99.82","","37","","","","Mainly Clear"
"2018-09-03 11:00","2018","09","03","11:00","30.2","","22.1","","62","","25","","13","","24.1","","99.82","","40","","","","NA"
"2018-09-03 12:00","2018","09","03","12:00","29.9","","21.9","","62","","29","","19","","24.1","","99.79","","39","","","","NA"
"2018-09-03 13:00","2018","09","03","13:00","30.8","","22.0","","59","","29","","14","","24.1","","99.76","","40","","","","Mostly Cloudy"
"2018-09-03 14:00","2018","09","03","14:00","31.0","","21.6","","57","","29","","15","","24.1","","99.78","","40","","","","NA"
"2018-09-03 15:00","2018","09","03","15:00","29.3","","21.6","","63","","32","","18","","24.1","","99.79","","38","","","","NA"
"2018-09-03 16:00","2018","09","03","16:00","28.6","","22.7","","70","","35","","16","","24.1","","99.84","","39","","","","Mostly Cloudy"
"2018-09-03 17:00","2018","09","03","17:00","27.7","","21.7","","69","","34","","18","","24.1","","99.84","","37","","","","NA"
"2018-09-03 18:00","2018","09","03","18:00","26.2","","21.4","","74","","34","","14","","24.1","","99.86","","35","","","","NA"
"2018-09-03 19:00","2018","09","03","19:00","24.8","","20.5","","77","","33","","13","","24.1","","99.91","","33","","","","Mostly Cloudy"
"2018-09-03 20:00","2018","09","03","20:00","23.6","","20.2","","81","","33","","8","","24.1","","100.01","","31","","","","NA"
"2018-09-03 21:00","2018","09","03","21:00","23.0","","19.8","","82","","34","","4","","24.1","","100.07","","30","","","","NA"
"2018-09-03 22:00","2018","09","03","22:00","21.2","","19.5","","90","","35","","8","","24.1","","100.12","","28","","","","Clear"
"2018-09-03 23:00","2018","09","03","23:00","20.6","","19.1","","91","","35","","8","","24.1","","100.14","","27","","","","NA"
"2018-09-04 00:00","2018","09","04","00:00","20.5","","19.1","","92","","35","","4","","24.1","","100.15","","27","","","","NA"
"2018-09-04 01:00","2018","09","04","01:00","19.1","","18.2","","94","","1","","3","","24.1","","100.15","","","","","","Clear"
"2018-09-04 02:00","2018","09","04","02:00","18.6","","18.0","","96","","32","","5","","24.1","","100.14","","","","","","NA"
"2018-09-04 03:00","2018","09","04","03:00","18.8","","18.3","","97","","36","","2","","24.1","","100.15","","","","","","NA"
"2018-09-04 04:00","2018","09","04","04:00","18.1","","17.7","","98","","1","","4","","24.1","","100.16","","","","","","Clear"
"2018-09-04 05:00","2018","09","04","05:00","18.2","","17.9","","98","","35","","5","","1.6","","100.16","","","","","","Fog"
"2018-09-04 06:00","2018","09","04","06:00","17.7","","17.5","","99","","32","","4","","11.3","","100.23","","","","","","NA"
"2018-09-04 07:00","2018","09","04","07:00","19.5","","19.3","","99","","6","","4","","24.1","","100.23","","","","","","Mainly Clear"
"2018-09-04 08:00","2018","09","04","08:00","21.6","","19.3","","87","","36","","2","","24.1","","100.24","","29","","","","NA"
"2018-09-04 09:00","2018","09","04","09:00","23.8","","18.0","","70","","15","","8","","24.1","","100.24","","30","","","","NA"
"2018-09-04 10:00","2018","09","04","10:00","24.6","","17.9","","66","","19","","12","","24.1","","100.25","","31","","","","Mostly Cloudy"
"2018-09-04 11:00","2018","09","04","11:00","25.5","","18.3","","64","","17","","10","","24.1","","100.22","","32","","","","NA"
"2018-09-04 12:00","2018","09","04","12:00","26.4","","19.7","","66","","17","","13","","24.1","","100.19","","34","","","","NA"
"2018-09-04 13:00","2018","09","04","13:00","26.5","","20.3","","68","","19","","11","","24.1","","100.13","","34","","","","Mostly Cloudy"
"2018-09-04 14:00","2018","09","04","14:00","28.0","","20.4","","63","","16","","14","","24.1","","100.04","","36","","","","NA"
"2018-09-04 15:00","2018","09","04","15:00","28.3","","21.6","","66","","20","","11","","24.1","","99.98","","37","","","","NA"
"2018-09-04 16:00","2018","09","04","16:00","28.6","","22.0","","67","","16","","16","","24.1","","99.95","","38","","","","Mainly Clear"
"2018-09-04 17:00","2018","09","04","17:00","27.6","","22.2","","72","","19","","18","","24.1","","99.90","","37","","","","NA"
"2018-09-04 18:00","2018","09","04","18:00","26.1","","21.5","","76","","17","","16","","24.1","","99.86","","35","","","","NA"
"2018-09-04 19:00","2018","09","04","19:00","23.8","","21.3","","86","","13","","12","","24.1","","99.89","","32","","","","Mainly Clear"
"2018-09-04 20:00","2018","09","04","20:00","22.9","","21.4","","91","","12","","9","","24.1","","99.95","","32","","","","NA"
"2018-09-04 21:00","2018","09","04","21:00","22.5","","21.1","","92","","12","","6","","24.1","","99.95","","31","","","","NA"
"2018-09-04 22:00","2018","09","04","22:00","22.2","","20.6","","90","","13","","5","","24.1","","99.93","","30","","","","Clear"
"2018-09-04 23:00","2018","09","04","23:00","21.7","","20.2","","91","","5","","4","","24.1","","99.91","","29","","","","NA"
"2018-09-05 00:00","2018","09","05","00:00","21.2","","20.4","","96","","36","","3","","24.1","","99.87","","29","","","","NA"
"2018-09-05 01:00","2018","09","05","01:00","20.6","","20.2","","97","","36","","3","","24.1","","99.83","","28","","","","Mainly Clear"
"2018-09-05 02:00","2018","09","05","02:00","20.9","","20.6","","98","","36","","1","","24.1","","99.81","","29","","","","NA"
"2018-09-05 03:00","2018","09","05","03:00","20.2","","19.9","","98","","36","","3","","24.1","","99.80","","28","","","","NA"
"2018-09-05 04:00","2018","09","05","04:00","19.5","","19.2","","98","","36","","4","","16.1","","99.78","","","","","","Clear"
"2018-09-05 05:00","2018","09","05","05:00","18.9","","18.6","","98","","36","","4","","16.1","","99.78","","","","","","NA"
"2018-09-05 06:00","2018","09","05","06:00","19.3","","19.0","","98","","0","","1","","19.3","","99.77","","","","","","NA"
"2018-09-05 07:00","2018","09","05","07:00","22.0","","21.1","","94","","6","","3","","16.1","","99.79","","31","","","","Mainly Clear"
"2018-09-05 08:00","2018","09","05","08:00","25.4","","22.2","","82","","19","","8","","19.3","","99.77","","35","","","","NA"
"2018-09-05 09:00","2018","09","05","09:00","27.8","","23.3","","76","","20","","10","","24.1","","99.76","","38","","","","NA"
"2018-09-05 10:00","2018","09","05","10:00","29.5","","23.4","","69","","20","","13","","24.1","","99.71","","40","","","","Mainly Clear"
"2018-09-05 11:00","2018","09","05","11:00","31.6","","24.3","","65","","20","","12","","24.1","","99.64","","43","","","","NA"
"2018-09-05 12:00","2018","09","05","12:00","31.9","","24.0","","62","","19","","22","","24.1","","99.56","","43","","","","NA"
"2018-09-05 13:00","2018","09","05","13:00","26.8","","23.1","","80","","26","","13","","22.5","","99.52","","37","","","","Rain Showers"
"2018-09-05 14:00","2018","09","05","14:00","31.1","","24.4","","67","","23","","13","","22.5","","99.45","","43","","","","NA"
"2018-09-05 15:00","2018","09","05","15:00","32.5","","22.5","","55","","22","","21","","24.1","","99.35","","42","","","","NA"
"2018-09-05 16:00","2018","09","05","16:00","32.2","","21.3","","52","","22","","23","","24.1","","99.32","","41","","","","Mainly Clear"
"2018-09-05 17:00","2018","09","05","17:00","32.0","","20.7","","51","","24","","15","","24.1","","99.36","","40","","","","NA"
"2018-09-05 18:00","2018","09","05","18:00","30.7","","20.7","","54","","22","","17","","24.1","","99.36","","39","","","","NA"
"2018-09-05 19:00","2018","09","05","19:00","29.2","","20.9","","60","","22","","13","","24.1","","99.36","","38","","","","Clear"
"2018-09-05 20:00","2018","09","05","20:00","28.7","","21.1","","63","","23","","20","","24.1","","99.44","","37","","","","NA"
"2018-09-05 21:00","2018","09","05","21:00","27.8","","21.6","","69","","23","","13","","24.1","","99.45","","37","","","","NA"
"2018-09-05 22:00","2018","09","05","22:00","27.4","","21.9","","72","","29","","14","","24.1","","99.50","","37","","","","Mainly Clear"
"2018-09-05 23:00","2018","09","05","23:00","25.4","","20.0","","72","","30","","20","","24.1","","99.55","","33","","","","Rain Showers"
"2018-09-06 00:00","2018","09","06","00:00","23.7","","20.2","","80","","31","","11","","24.1","","99.57","","31","","","","NA"
"2018-09-06 01:00","2018","09","06","01:00","22.6","","20.6","","88","","30","","9","","24.1","","99.60","","31","","","","Rain Showers"
"2018-09-06 02:00","2018","09","06","02:00","21.3","","19.8","","91","","33","","10","","24.1","","99.58","","29","","","","Rain Showers"
"2018-09-06 03:00","2018","09","06","03:00","21.3","","19.6","","90","","32","","19","","24.1","","99.68","","29","","","","NA"
"2018-09-06 04:00","2018","09","06","04:00","20.8","","18.9","","89","","33","","20","","24.1","","99.69","","27","","","","Mostly Cloudy"
"2018-09-06 05:00","2018","09","06","05:00","20.3","","18.3","","88","","35","","17","","24.1","","99.73","","27","","","","NA"
"2018-09-06 06:00","2018","09","06","06:00","20.2","","18.2","","88","","34","","16","","24.1","","99.82","","26","","","","NA"
"2018-09-06 07:00","2018","09","06","07:00","20.2","","18.2","","88","","33","","14","","22.5","","99.92","","26","","","","Rain Showers"
"2018-09-06 08:00","2018","09","06","08:00","20.6","","18.5","","88","","1","","17","","24.1","","99.88","","27","","","","NA"
"2018-09-06 09:00","2018","09","06","09:00","21.4","","18.5","","83","","1","","11","","24.1","","99.99","","28","","","","NA"
"2018-09-06 10:00","2018","09","06","10:00","21.9","","18.1","","79","","35","","17","","24.1","","100.01","","28","","","","Mostly Cloudy"
"2018-09-06 11:00","2018","09","06","11:00","23.0","","17.7","","72","","2","","16","","24.1","","100.03","","29","","","","NA"
"2018-09-06 12:00","2018","09","06","12:00","23.2","","18.5","","75","","34","","7","","24.1","","100.05","","30","","","","NA"
"2018-09-06 13:00","2018","09","06","13:00","24.1","","17.9","","68","","32","","8","","24.1","","100.00","","30","","","","Mostly Cloudy"
"2018-09-06 14:00","2018","09","06","14:00","24.4","","17.1","","63","","36","","12","","24.1","","99.94","","30","","","","NA"
"2018-09-06 15:00","2018","09","06","15:00","23.5","","17.5","","69","","35","","15","","24.1","","99.91","","29","","","","NA"
"2018-09-06 16:00","2018","09","06","16:00","24.1","","17.8","","67","","35","","16","","24.1","","99.95","","30","","","","Mostly Cloudy"
"2018-09-06 17:00","2018","09","06","17:00","22.8","","16.8","","69","","34","","17","","24.1","","99.94","","28","","","","NA"
"2018-09-06 18:00","2018","09","06","18:00","21.5","","16.1","","71","","34","","17","","24.1","","99.98","","26","","","","NA"
"2018-09-06 19:00","2018","09","06","19:00","19.5","","15.0","","75","","34","","12","","24.1","","100.00","","","","","","Mostly Cloudy"
"2018-09-06 20:00","2018","09","06","20:00","18.2","","13.9","","76","","35","","14","","24.1","","100.07","","","","","","NA"
"2018-09-06 21:00","2018","09","06","21:00","17.1","","13.6","","79","","35","","12","","24.1","","100.09","","","","","","NA"
"2018-09-06 22:00","2018","09","06","22:00","17.0","","13.6","","80","","35","","16","","24.1","","100.09","","","","","","Mostly Cloudy"
"2018-09-06 23:00","2018","09","06","23:00","16.3","","13.6","","84","","35","","11","","24.1","","100.09","","","","","","NA"
"2018-09-07 00:00","2018","09","07","00:00","15.5","","13.6","","88","","36","","5","","24.1","","100.11","","","","","","NA"
"2018-09-07 01:00","2018","09","07","01:00","15.2","","13.6","","90","","34","","10","","24.1","","100.09","","","","","","Mainly Clear"
"2018-09-07 02:00","2018","09","07","02:00","15.3","","13.4","","88","","2","","7","","24.1","","100.07","","","","","","NA"
"2018-09-07 03:00","2018","09","07","03:00","14.2","","12.6","","90","","1","","5","","24.1","","100.05","","","","","","NA"
"2018-09-07 04:00","2018","09","07","04:00","13.9","","12.4","","91","","35","","8","","24.1","","100.06","","","","","","Mostly Cloudy"
"2018-09-07 05:00","2018","09","07","05:00","14.5","","12.3","","86","","1","","10","","24.1","","100.06","","","","","","NA"
"2018-09-07 06:00","2018","09","07","06:00","14.3","","12.0","","86","","3","","9","","24.1","","100.09","","","","","","NA"
"2018-09-07 07:00","2018","09","07","07:00","15.5","","12.5","","82","","3","","7","","24.1","","100.09","","","","","","Mostly Cloudy"
"2018-09-07 08:00","2018","09","07","08:00","17.7","","12.7","","72","","3","","8","","24.1","","100.08","","","","","","NA"
"2018-09-07 09:00","2018","09","07","09:00","19.8","","13.3","","66","","7","","11","","24.1","","100.09","","","","","","NA"
"2018-09-07 10:00","2018","09","07","10:00","20.2","","13.8","","66","","4","","12","","24.1","","100.09","","","","","","Mostly Cloudy"
"2018-09-07 11:00","2018","09","07","11:00","21.5","","13.7","","61","","2","","7","","24.1","","100.08","","25","","","","NA"
"2018-09-07 12:00","2018","09","07","12:00","21.4","","13.3","","59","","32","","10","","24.1","","100.02","","","","","","NA"
"2018-09-07 13:00","2018","09","07","13:00","22.5","","13.3","","56","","34","","16","","24.1","","99.98","","25","","","","Mostly Cloudy"
"2018-09-07 14:00","2018","09","07","14:00","23.2","","9.2","","40","","31","","4","","24.1","","99.93","","","","","","NA"
"2018-09-07 15:00","2018","09","07","15:00","22.5","","11.7","","50","","36","","14","","24.1","","99.89","","25","","","","NA"
"2018-09-07 16:00","2018","09","07","16:00","21.2","","11.0","","52","","1","","16","","24.1","","99.87","","","","","","Mostly Cloudy"
"2018-09-07 17:00","2018","09","07","17:00","20.4","","11.3","","56","","3","","14","","24.1","","99.89","","","","","","NA"
"2018-09-07 18:00","2018","09","07","18:00","19.5","","11.5","","60","","3","","10","","24.1","","99.92","","","","","","NA"
"2018-09-07 19:00","2018","09","07","19:00","18.8","","12.3","","65","","33","","16","","24.1","","99.93","","","","","","Cloudy"
"2018-09-07 20:00","2018","09","07","20:00","17.2","","11.2","","68","","34","","11","","24.1","","99.99","","","","","","NA"
"2018-09-07 21:00","2018","09","07","21:00","16.1","","10.3","","68","","35","","12","","24.1","","100.00","","","","","","NA"
"2018-09-07 22:00","2018","09","07","22:00","15.8","","10.1","","69","","35","","14","","24.1","","100.00","","","","","","Mostly Cloudy"
"2018-09-07 23:00","2018","09","07","23:00","15.0","","10.1","","72","","36","","10","","24.1","","100.02","","","","","","NA"
"2018-09-08 00:00","2018","09","08","00:00","15.8","","8.4","","61","","1","","13","","24.1","","100.03","","","","","","NA"
"2018-09-08 01:00","2018","09","08","01:00","14.6","","8.5","","67","","1","","9","","24.1","","100.03","","","","","","Mostly Cloudy"
"2018-09-08 02:00","2018","09","08","02:00","14.7","","8.6","","67","","4","","17","","24.1","","100.03","","","","","","NA"
"2018-09-08 03:00","2018","09","08","03:00","13.7","","8.8","","72","","2","","13","","24.1","","100.07","","","","","","NA"
"2018-09-08 04:00","2018","09","08","04:00","13.0","","8.5","","74","","2","","16","","24.1","","100.10","","","","","","Mostly Cloudy"
"2018-09-08 05:00","2018","09","08","05:00","12.1","","8.2","","77","","2","","14","","24.1","","100.12","","","","","","NA"
"2018-09-08 06:00","2018","09","08","06:00","11.2","","7.3","","77","","3","","12","","24.1","","100.17","","","","","","NA"
"2018-09-08 07:00","2018","09","08","07:00","11.2","","7.0","","75","","4","","11","","24.1","","100.22","","","","","","Mostly Cloudy"
"2018-09-08 08:00","2018","09","08","08:00","12.1","","5.9","","65","","6","","13","","24.1","","100.26","","","","","","NA"
"2018-09-08 09:00","2018","09","08","09:00","13.0","","3.1","","51","","7","","21","","24.1","","100.28","","","","","","NA"
"2018-09-08 10:00","2018","09","08","10:00","13.5","","3.5","","50","","8","","12","","24.1","","100.31","","","","","","Mostly Cloudy"
"2018-09-08 11:00","2018","09","08","11:00","14.4","","4.0","","49","","8","","15","","24.1","","100.30","","","","","","NA"
"2018-09-08 12:00","2018","09","08","12:00","14.5","","5.5","","54","","7","","14","","24.1","","100.25","","","","","","NA"
"2018-09-08 13:00","2018","09","08","13:00","15.3","","5.5","","52","","4","","9","","24.1","","100.20","","","","","","Mostly Cloudy"
"2018-09-08 14:00","2018","09","08","14:00","15.7","","5.9","","52","","3","","14","","24.1","","100.17","","","","","","NA"
"2018-09-08 15:00","2018","09","08","15:00","16.2","","5.4","","48","","9","","14","","24.1","","100.13","","","","","","NA"
"2018-09-08 16:00","2018","09","08","16:00","15.8","","4.8","","48","","5","","17","","24.1","","100.13","","","","","","Mostly Cloudy"
"2018-09-08 17:00","2018","09","08","17:00","15.6","","5.0","","49","","6","","11","","24.1","","100.11","","","","","","NA"
"2018-09-08 18:00","2018","09","08","18:00","14.7","","4.6","","51","","5","","10","","24.1","","100.10","","","","","","NA"
"2018-09-08 19:00","2018","09","08","19:00","13.4","","5.8","","60","","6","","7","","24.1","","100.10","","","","","","Mostly Cloudy"
"2018-09-08 20:00","2018","09","08","20:00","12.2","","6.7","","69","","4","","5","","24.1","","100.13","","","","","","NA"
"2018-09-08 21:00","2018","09","08","21:00","10.8","","7.0","","77","","2","","9","","24.1","","100.15","","","","","","NA"
"2018-09-08 22:00","2018","09","08","22:00","10.9","","6.1","","72","","4","","10","","24.1","","100.17","","","","","","Mostly Cloudy"
"2018-09-08 23:00","2018","09","08","23:00","10.7","","4.8","","67","","5","","9","","24.1","","100.18","","","","","","NA"
"2018-09-09 00:00","2018","09","09","00:00","10.6","","4.1","","64","","5","","13","","24.1","","100.17","","","","","","NA"
"2018-09-09 01:00","2018","09","09","01:00","10.4","","3.8","","63","","5","","14","","24.1","","100.20","","","","","","Mainly Clear"
"2018-09-09 02:00","2018","09","09","02:00","9.8","","4.3","","68","","6","","13","","24.1","","100.17","","","","","","NA"
"2018-09-09 03:00","2018","09","09","03:00","9.0","","4.3","","72","","5","","11","","24.1","","100.11","","","","","","NA"
"2018-09-09 04:00","2018","09","09","04:00","9.2","","4.3","","71","","5","","13","","24.1","","100.07","","","","","","Mostly Cloudy"
"2018-09-09 05:00","2018","09","09","05:00","8.9","","4.2","","72","","6","","13","","24.1","","100.08","","","","","","NA"
"2018-09-09 06:00","2018","09","09","06:00","8.8","","4.3","","74","","5","","12","","24.1","","100.08","","","","","","NA"
"2018-09-09 07:00","2018","09","09","07:00","10.0","","4.3","","68","","6","","16","","24.1","","100.06","","","","","","Mostly Cloudy"
"2018-09-09 08:00","2018","09","09","08:00","10.7","","5.0","","68","","6","","13","","24.1","","100.09","","","","","","NA"
"2018-09-09 09:00","2018","09","09","09:00","11.8","","5.5","","65","","6","","19","","24.1","","100.11","","","","","","NA"
"2018-09-09 10:00","2018","09","09","10:00","12.9","","6.6","","65","","7","","16","","24.1","","100.11","","","","","","Mostly Cloudy"
"2018-09-09 11:00","2018","09","09","11:00","14.1","","7.0","","62","","10","","28","","24.1","","100.10","","","","","","NA"
"2018-09-09 12:00","2018","09","09","12:00","14.5","","7.4","","62","","9","","26","","24.1","","100.08","","","","","","NA"
"2018-09-09 13:00","2018","09","09","13:00","15.1","","7.8","","61","","9","","26","","24.1","","100.05","","","","","","Cloudy"
"2018-09-09 14:00","2018","09","09","14:00","14.7","","6.6","","58","","8","","30","","24.1","","100.04","","","","","","NA"
"2018-09-09 15:00","2018","09","09","15:00","14.6","","6.0","","56","","8","","27","","24.1","","100.02","","","","","","NA"
"2018-09-09 16:00","2018","09","09","16:00","14.2","","4.6","","52","","9","","21","","24.1","","100.00","","","","","","Mostly Cloudy"
"2018-09-09 17:00","2018","09","09","17:00","14.0","","4.2","","52","","8","","19","","24.1","","99.97","","","","","","NA"
"2018-09-09 18:00","2018","09","09","18:00","13.4","","4.0","","53","","7","","18","","24.1","","99.98","","","","","","NA"
"2018-09-09 19:00","2018","09","09","19:00","12.9","","3.9","","54","","7","","18","","24.1","","99.94","","","","","","Mostly Cloudy"
"2018-09-09 20:00","2018","09","09","20:00","12.3","","4.2","","58","","7","","16","","24.1","","99.96","","","","","","NA"
"2018-09-09 21:00","2018","09","09","21:00","12.1","","4.2","","58","","7","","16","","24.1","","99.94","","","","","","NA"
"2018-09-09 22:00","2018","09","09","22:00","11.8","","4.9","","63","","7","","13","","24.1","","99.90","","","","","","Mostly Cloudy"
"2018-09-09 23:00","2018","09","09","23:00","11.9","","5.8","","66","","6","","10","","24.1","","99.91","","","","","","NA"
"2018-09-10 00:00","2018","09","10","00:00","12.6","","7.0","","69","","8","","18","","24.1","","99.86","","","","","","NA"
"2018-09-10 01:00","2018","09","10","01:00","13.3","","7.9","","70","","9","","21","","24.1","","99.78","","","","","","Cloudy"
"2018-09-10 02:00","2018","09","10","02:00","13.3","","8.6","","73","","8","","14","","24.1","","99.71","","","","","","NA"
"2018-09-10 03:00","2018","09","10","03:00","13.4","","10.2","","81","","8","","16","","12.9","","99.68","","","","","","Rain"
"2018-09-10 04:00","2018","09","10","04:00","13.0","","11.8","","93","","9","","14","","12.9","","99.62","","","","","","Rain"
"2018-09-10 05:00","2018","09","10","05:00","13.5","","12.4","","93","","10","","17","","12.9","","99.62","","","","","","Rain"
"2018-09-10 06:00","2018","09","10","06:00","13.2","","12.4","","95","","10","","20","","24.1","","99.54","","","","","","Rain"
"2018-09-10 07:00","2018","09","10","07:00","13.4","","12.4","","94","","10","","27","","16.1","","99.57","","","","","","Rain"
"2018-09-10 08:00","2018","09","10","08:00","13.3","","12.8","","96","","9","","26","","2.4","","99.55","","","","","","Rain,Fog"
"2018-09-10 09:00","2018","09","10","09:00","12.9","","12.3","","96","","11","","31","","2.4","","99.55","","","","","","Rain,Fog"
"2018-09-10 10:00","2018","09","10","10:00","13.1","","12.5","","96","","11","","29","","2.4","","99.52","","","","","","Rain,Fog"
"2018-09-10 11:00","2018","09","10","11:00","12.3","","11.8","","96","","12","","32","","3.6","","99.50","","","","","","Rain,Fog"
"2018-09-10 12:00","2018","09","10","12:00","12.6","","12.0","","96","","11","","28","","4.8","","99.41","","","","","","Drizzle,Fog"
"2018-09-10 13:00","2018","09","10","13:00","12.8","","12.1","","96","","11","","22","","4.8","","99.37","","","","","","Drizzle,Fog"
"2018-09-10 14:00","2018","09","10","14:00","12.7","","12.1","","96","","11","","23","","3.2","","99.29","","","","","","Drizzle,Fog"
"2018-09-10 15:00","2018","09","10","15:00","13.0","","12.4","","96","","11","","27","","3.2","","99.25","","","","","","Drizzle,Fog"
"2018-09-10 16:00","2018","09","10","16:00","13.3","","12.8","","97","","10","","21","","2.8","","99.20","","","","","","Drizzle,Fog"
"2018-09-10 17:00","2018","09","10","17:00","13.4","","13.0","","97","","10","","21","","2.8","","99.18","","","","","","Drizzle,Fog"
"2018-09-10 18:00","2018","09","10","18:00","13.8","","13.4","","98","","11","","18","","2.4","","99.19","","","","","","Drizzle,Fog"
"2018-09-10 19:00","2018","09","10","19:00","14.2","","13.9","","98","","11","","15","","3.2","","99.16","","","","","","Drizzle,Fog"
"2018-09-10 20:00","2018","09","10","20:00","14.7","","14.4","","98","","11","","12","","3.2","","99.20","","","","","","Drizzle,Fog"
"2018-09-10 21:00","2018","09","10","21:00","15.1","","14.8","","98","","12","","10","","2.8","","99.20","","","","","","Drizzle,Fog"
"2018-09-10 22:00","2018","09","10","22:00","15.4","","15.1","","99","","12","","7","","4.8","","99.20","","","","","","Drizzle,Fog"
"2018-09-10 23:00","2018","09","10","23:00","15.6","","15.4","","99","","10","","8","","4.0","","99.21","","","","","","Rain,Fog"
"2018-09-11 00:00","2018","09","11","00:00","15.8","","15.6","","99","","10","","4","","1.6","","99.24","","","","","","Drizzle,Fog"
"2018-09-11 01:00","2018","09","11","01:00","15.9","","15.7","","99","","36","","3","","1.6","","99.24","","","","","","Drizzle,Fog"
"2018-09-11 02:00","2018","09","11","02:00","15.9","","15.8","","99","","32","","7","","1.6","","99.26","","","","","","Drizzle,Fog"
"2018-09-11 03:00","2018","09","11","03:00","14.8","","14.7","","99","","34","","11","","12.9","","99.28","","","","","","NA"
"2018-09-11 04:00","2018","09","11","04:00","14.5","","14.3","","99","","33","","8","","12.9","","99.34","","","","","","Cloudy"
"2018-09-11 05:00","2018","09","11","05:00","14.5","","14.3","","99","","34","","12","","19.3","","99.39","","","","","","NA"
"2018-09-11 06:00","2018","09","11","06:00","14.6","","14.3","","98","","32","","8","","16.1","","99.46","","","","","","NA"
"2018-09-11 07:00","2018","09","11","07:00","14.7","","13.8","","95","","34","","17","","24.1","","99.56","","","","","","Mostly Cloudy"
"2018-09-11 08:00","2018","09","11","08:00","14.9","","13.6","","92","","35","","18","","24.1","","99.61","","","","","","NA"
"2018-09-11 09:00","2018","09","11","09:00","15.0","","13.9","","93","","36","","16","","24.1","","99.67","","","","","","NA"
"2018-09-11 10:00","2018","09","11","10:00","16.7","","14.3","","86","","34","","16","","24.1","","99.72","","","","","","Mostly Cloudy"
"2018-09-11 11:00","2018","09","11","11:00","17.4","","14.5","","83","","35","","14","","24.1","","99.76","","","","","","NA"
"2018-09-11 12:00","2018","09","11","12:00","17.7","","14.4","","81","","34","","8","","24.1","","99.81","","","","","","NA"
"2018-09-11 13:00","2018","09","11","13:00","17.8","","14.2","","79","","35","","10","","24.1","","99.83","","","","","","Cloudy"
"2018-09-11 14:00","2018","09","11","14:00","18.4","","14.4","","77","","2","","9","","24.1","","99.82","","","","","","NA"
"2018-09-11 15:00","2018","09","11","15:00","18.8","","14.3","","75","","2","","9","","24.1","","99.82","","","","","","NA"
"2018-09-11 16:00","2018","09","11","16:00","19.0","","14.7","","76","","2","","6","","24.1","","99.81","","","","","","Mostly Cloudy"
"2018-09-11 17:00","2018","09","11","17:00","19.1","","14.5","","75","","3","","13","","24.1","","99.83","","","","","","NA"
"2018-09-11 18:00","2018","09","11","18:00","17.8","","14.0","","78","","5","","9","","24.1","","99.83","","","","","","NA"
"2018-09-11 19:00","2018","09","11","19:00","16.0","","13.3","","84","","5","","7","","24.1","","99.85","","","","","","Clear"
"2018-09-11 20:00","2018","09","11","20:00","15.1","","13.2","","89","","13","","3","","24.1","","99.93","","","","","","NA"
"2018-09-11 21:00","2018","09","11","21:00","14.2","","13.1","","93","","36","","4","","24.1","","99.98","","","","","","NA"
"2018-09-11 22:00","2018","09","11","22:00","13.4","","12.7","","95","","36","","4","","24.1","","99.97","","","","","","Mainly Clear"
"2018-09-11 23:00","2018","09","11","23:00","12.8","","12.1","","95","","36","","3","","19.3","","99.99","","","","","","NA"
"2018-09-12 00:00","2018","09","12","00:00","12.7","","12.0","","95","","36","","1","","24.1","","100.00","","","","","","NA"
"2018-09-12 01:00","2018","09","12","01:00","11.6","","11.1","","97","","35","","3","","24.1","","99.97","","","","","","Mainly Clear"
"2018-09-12 02:00","2018","09","12","02:00","11.4","","11.0","","98","","36","","4","","19.3","","100.01","","","","","","NA"
"2018-09-12 03:00","2018","09","12","03:00","11.1","","10.7","","97","","33","","4","","19.3","","100.01","","","","","","NA"
"2018-09-12 04:00","2018","09","12","04:00","11.2","","10.8","","98","","36","","5","","19.3","","100.02","","","","","","Clear"
"2018-09-12 05:00","2018","09","12","05:00","11.3","","10.9","","97","","36","","6","","19.3","","100.08","","","","","","NA"
"2018-09-12 06:00","2018","09","12","06:00","11.2","","10.8","","97","","36","","2","","24.1","","100.14","","","","","","NA"
"2018-09-12 07:00","2018","09","12","07:00","13.1","","12.5","","96","","5","","3","","24.1","","100.17","","","","","","Mainly Clear"
"2018-09-12 08:00","2018","09","12","08:00","16.7","","15.0","","89","","4","","3","","24.1","","100.17","","","","","","NA"
"2018-09-12 09:00","2018","09","12","09:00","19.2","","15.7","","80","","14","","8","","24.1","","100.18","","","","","","NA"
"2018-09-12 10:00","2018","09","12","10:00","20.1","","15.4","","74","","10","","5","","24.1","","100.19","","","","","","Mainly Clear"
"2018-09-12 11:00","2018","09","12","11:00","21.5","","16.6","","73","","10","","11","","24.1","","100.16","","27","","","","NA"
"2018-09-12 12:00","2018","09","12","12:00","22.3","","16.5","","70","","14","","4","","24.1","","100.16","","27","","","","NA"
"2018-09-12 13:00","2018","09","12","13:00","22.9","","15.9","","64","","16","","7","","24.1","","100.15","","27","","","","Mostly Cloudy"
"2018-09-12 14:00","2018","09","12","14:00","23.1","","16.4","","65","","10","","9","","24.1","","100.11","","28","","","","NA"
"2018-09-12 15:00","2018","09","12","15:00","22.5","","16.9","","70","","10","","16","","24.1","","100.07","","28","","","","NA"
"2018-09-12 16:00","2018","09","12","16:00","22.6","","16.9","","69","","11","","16","","24.1","","100.05","","28","","","","Mainly Clear"
"2018-09-12 17:00","2018","09","12","17:00","22.0","","16.4","","70","","12","","15","","24.1","","100.07","","27","","","","NA"
"2018-09-12 18:00","2018","09","12","18:00","20.4","","16.1","","76","","9","","10","","24.1","","100.07","","25","","","","NA"
"2018-09-12 19:00","2018","09","12","19:00","19.0","","16.2","","83","","8","","6","","24.1","","100.08","","","","","","Clear"
"2018-09-12 20:00","2018","09","12","20:00","17.8","","15.8","","88","","12","","4","","24.1","","100.12","","","","","","NA"
"2018-09-12 21:00","2018","09","12","21:00","17.1","","15.9","","92","","6","","4","","24.1","","100.14","","","","","","NA"
"2018-09-12 22:00","2018","09","12","22:00","15.4","","14.7","","96","","1","","5","","24.1","","100.14","","","","","","Clear"
"2018-09-12 23:00","2018","09","12","23:00","14.9","","14.5","","98","","2","","6","","24.1","","100.12","","","","","","NA"
"2018-09-13 00:00","2018","09","13","00:00","16.0","","15.7","","98","","2","","3","","24.1","","100.12","","","","","","NA"
"2018-09-13 01:00","2018","09","13","01:00","16.7","","16.4","","98","","2","","8","","4.8","","100.14","","","","","","Fog"
"2018-09-13 02:00","2018","09","13","02:00","16.6","","16.4","","99","","2","","7","","0.8","","100.16","","","","","","Fog"
"2018-09-13 03:00","2018","09","13","03:00","15.2","","15.0","","99","","2","","5","","24.1","","100.13","","","","","","NA"
"2018-09-13 04:00","2018","09","13","04:00","14.3","","14.1","","99","","35","","4","","24.1","","100.15","","","","","","Clear"
"2018-09-13 05:00","2018","09","13","05:00","14.5","","14.4","","99","","2","","5","","24.1","","100.16","","","","","","NA"
"2018-09-13 06:00","2018","09","13","06:00","14.6","","14.4","","99","","1","","5","","24.1","","100.19","","","","","","NA"
"2018-09-13 07:00","2018","09","13","07:00","15.7","","15.0","","96","","1","","5","","24.1","","100.22","","","","","","Mainly Clear"
"2018-09-13 08:00","2018","09","13","08:00","19.4","","16.0","","80","","7","","12","","24.1","","100.23","","","","","","NA"
"2018-09-13 09:00","2018","09","13","09:00","21.0","","16.4","","75","","10","","17","","24.1","","100.25","","26","","","","NA"
"2018-09-13 10:00","2018","09","13","10:00","22.7","","16.9","","69","","9","","16","","24.1","","100.25","","28","","","","Mainly Clear"
"2018-09-13 11:00","2018","09","13","11:00","23.5","","17.1","","67","","9","","17","","24.1","","100.21","","29","","","","NA"
"2018-09-13 12:00","2018","09","13","12:00","23.6","","16.2","","63","","10","","16","","24.1","","100.20","","28","","","","NA"
"2018-09-13 13:00","2018","09","13","13:00","24.6","","16.9","","62","","13","","18","","24.1","","100.14","","30","","","","Clear"
"2018-09-13 14:00","2018","09","13","14:00","24.9","","17.4","","63","","12","","18","","24.1","","100.07","","30","","","","NA"
"2018-09-13 15:00","2018","09","13","15:00","25.1","","17.2","","61","","11","","18","","24.1","","100.05","","31","","","","NA"
"2018-09-13 16:00","2018","09","13","16:00","25.0","","17.3","","62","","9","","15","","24.1","","99.98","","30","","","","Clear"
"2018-09-13 17:00","2018","09","13","17:00","24.1","","16.9","","64","","12","","18","","24.1","","99.95","","29","","","","NA"
"2018-09-13 18:00","2018","09","13","18:00","22.9","","16.4","","66","","10","","13","","24.1","","99.94","","28","","","","NA"
"2018-09-13 19:00","2018","09","13","19:00","21.6","","16.2","","71","","9","","10","","24.1","","99.94","","26","","","","Mainly Clear"
"2018-09-13 20:00","2018","09","13","20:00","20.9","","16.3","","75","","10","","9","","24.1","","99.95","","26","","","","NA"
"2018-09-13 21:00","2018","09","13","21:00","20.3","","16.3","","77","","11","","9","","24.1","","99.96","","25","","","","NA"
"2018-09-13 22:00","2018","09","13","22:00","19.6","","16.4","","81","","7","","6","","24.1","","99.95","","","","","","Mainly Clear"
"2018-09-13 23:00","2018","09","13","23:00","19.1","","16.2","","83","","8","","7","","24.1","","99.94","","","","","","NA"
"2018-09-14 00:00","2018","09","14","00:00","18.6","","16.0","","85","","6","","4","","24.1","","99.92","","","","","","NA"
"2018-09-14 01:00","2018","09","14","01:00","17.3","","15.5","","89","","36","","5","","24.1","","99.89","","","","","","Mainly Clear"
"2018-09-14 02:00","2018","09","14","02:00","17.1","","15.7","","91","","1","","5","","24.1","","99.85","","","","","","NA"
"2018-09-14 03:00","2018","09","14","03:00","17.2","","15.8","","91","","36","","3","","24.1","","99.87","","","","","","NA"
"2018-09-14 04:00","2018","09","14","04:00","16.6","","15.6","","94","","4","","5","","24.1","","99.85","","","","","","Mainly Clear"
"2018-09-14 05:00","2018","09","14","05:00","17.9","","16.4","","91","","7","","4","","24.1","","99.87","","","","","","NA"
"2018-09-14 06:00","2018","09","14","06:00","17.6","","16.5","","93","","5","","4","","24.1","","99.91","","","","","","NA"
"2018-09-14 07:00","2018","09","14","07:00","19.0","","17.7","","92","","9","","5","","24.1","","99.92","","","","","","Mostly Cloudy"
"2018-09-14 08:00","2018","09","14","08:00","20.8","","19.2","","91","","9","","7","","24.1","","99.88","","28","","","","NA"
"2018-09-14 09:00","2018","09","14","09:00","23.4","","20.3","","82","","8","","5","","24.1","","99.88","","31","","","","NA"
"2018-09-14 10:00","2018","09","14","10:00","26.0","","21.0","","74","","17","","9","","24.1","","99.85","","34","","","","Mainly Clear"
"2018-09-14 11:00","2018","09","14","11:00","25.8","","20.7","","73","","22","","5","","24.1","","99.82","","34","","","","NA"
"2018-09-14 12:00","2018","09","14","12:00","26.7","","21.4","","72","","15","","7","","24.1","","99.79","","35","","","","NA"
"2018-09-14 13:00","2018","09","14","13:00","27.4","","21.5","","70","","15","","10","","24.1","","99.76","","36","","","","Mostly Cloudy"
"2018-09-14 14:00","2018","09","14","14:00","28.5","","21.8","","66","","13","","13","","24.1","","99.72","","38","","","","NA"
"2018-09-14 15:00","2018","09","14","15:00","27.7","","20.7","","65","","16","","11","","24.1","","99.69","","36","","","","NA"
"2018-09-14 16:00","2018","09","14","16:00","27.2","","20.3","","66","","12","","15","","24.1","","99.68","","35","","","","Mostly Cloudy"
"2018-09-14 17:00","2018","09","14","17:00","26.0","","20.6","","72","","12","","20","","24.1","","99.68","","34","","","","NA"
"2018-09-14 18:00","2018","09","14","18:00","24.4","","20.0","","76","","14","","12","","24.1","","99.70","","32","","","","NA"
"2018-09-14 19:00","2018","09","14","19:00","22.6","","19.5","","82","","12","","10","","24.1","","99.72","","30","","","","Mainly Clear"
"2018-09-14 20:00","2018","09","14","20:00","22.1","","19.6","","85","","9","","6","","24.1","","99.74","","29","","","","NA"
"2018-09-14 21:00","2018","09","14","21:00","21.5","","19.5","","88","","8","","5","","24.1","","99.76","","29","","","","NA"
"2018-09-14 22:00","2018","09","14","22:00","20.4","","19.0","","92","","5","","5","","24.1","","99.77","","27","","","","Mainly Clear"
"2018-09-14 23:00","2018","09","14","23:00","20.0","","18.8","","93","","2","","5","","24.1","","99.79","","27","","","","NA"
"2018-09-15 00:00","2018","09","15","00:00","20.2","","19.2","","94","","32","","4","","24.1","","99.76","","27","","","","NA"
"2018-09-15 01:00","2018","09","15","01:00","20.1","","19.1","","94","","33","","8","","24.1","","99.75","","27","","","","Mostly Cloudy"
"2018-09-15 02:00","2018","09","15","02:00","19.4","","18.8","","96","","35","","8","","24.1","","99.75","","","","","","NA"
"2018-09-15 03:00","2018","09","15","03:00","19.3","","18.6","","96","","","","0","","24.1","","99.76","","","","","","NA"
"2018-09-15 04:00","2018","09","15","04:00","19.7","","19.0","","96","","36","","3","","24.1","","99.78","","","","","","Mostly Cloudy"
"2018-09-15 05:00","2018","09","15","05:00","19.8","","19.0","","95","","36","","2","","24.1","","99.83","","","","","","NA"
"2018-09-15 06:00","2018","09","15","06:00","19.0","","18.5","","97","","36","","4","","24.1","","99.84","","","","","","NA"
"2018-09-15 07:00","2018","09","15","07:00","20.5","","19.8","","96","","7","","4","","24.1","","99.88","","28","","","","Mainly Clear"
"2018-09-15 08:00","2018","09","15","08:00","22.5","","19.9","","85","","36","","2","","24.1","","99.87","","30","","","","NA"
"2018-09-15 09:00","2018","09","15","09:00","25.0","","21.0","","79","","36","","2","","24.1","","99.89","","33","","","","NA"
"2018-09-15 10:00","2018","09","15","10:00","26.6","","21.4","","73","","9","","5","","24.1","","99.93","","35","","","","Mainly Clear"
"2018-09-15 11:00","2018","09","15","11:00","27.7","","21.7","","70","","2","","5","","24.1","","99.89","","37","","","","NA"
"2018-09-15 12:00","2018","09","15","12:00","27.4","","22.4","","74","","36","","7","","24.1","","99.88","","37","","","","NA"
"2018-09-15 13:00","2018","09","15","13:00","28.3","","21.2","","65","","19","","3","","24.1","","99.85","","37","","","","Mostly Cloudy"
"2018-09-15 14:00","2018","09","15","14:00","27.0","","21.2","","70","","5","","10","","24.1","","99.82","","36","","","","NA"
"2018-09-15 15:00","2018","09","15","15:00","27.7","","21.4","","68","","19","","14","","24.1","","99.79","","36","","","","NA"
"2018-09-15 16:00","2018","09","15","16:00","27.7","","20.9","","66","","18","","7","","24.1","","99.77","","36","","","","Mainly Clear"
"2018-09-15 17:00","2018","09","15","17:00","27.1","","20.8","","68","","19","","9","","24.1","","99.75","","35","","","","NA"
"2018-09-15 18:00","2018","09","15","18:00","25.0","","20.4","","76","","20","","11","","24.1","","99.78","","33","","","","NA"
"2018-09-15 19:00","2018","09","15","19:00","24.1","","20.2","","78","","16","","5","","24.1","","99.80","","32","","","","Clear"
"2018-09-15 20:00","2018","09","15","20:00","23.2","","19.9","","81","","36","","1","","24.1","","99.84","","31","","","","NA"
"2018-09-15 21:00","2018","09","15","21:00","21.2","","19.4","","90","","1","","5","","24.1","","99.84","","28","","","","NA"
"2018-09-15 22:00","2018","09","15","22:00","21.9","","20.1","","89","","36","","2","","24.1","","99.87","","30","","","","Clear"
"2018-09-15 23:00","2018","09","15","23:00","21.1","","19.6","","91","","36","","5","","24.1","","99.90","","28","","","","NA"
"2018-09-16 00:00","2018","09","16","00:00","20.5","","19.7","","95","","36","","8","","24.1","","99.90","","28","","","","NA"
"2018-09-16 01:00","2018","09","16","01:00","20.2","","19.2","","94","","34","","6","","24.1","","99.88","","27","","","","Mainly Clear"
"2018-09-16 02:00","2018","09","16","02:00","20.5","","19.2","","92","","32","","3","","24.1","","99.87","","27","","","","NA"
"2018-09-16 03:00","2018","09","16","03:00","19.4","","18.2","","93","","33","","5","","24.1","","99.86","","","","","","NA"
"2018-09-16 04:00","2018","09","16","04:00","19.8","","18.9","","95","","34","","3","","22.5","","99.88","","","","","","Mainly Clear"
"2018-09-16 05:00","2018","09","16","05:00","18.7","","18.2","","97","","36","","1","","24.1","","99.90","","","","","","NA"
"2018-09-16 06:00","2018","09","16","06:00","18.4","","18.0","","97","","35","","6","","24.1","","99.93","","","","","","NA"
"2018-09-16 07:00","2018","09","16","07:00","20.1","","19.3","","95","","36","","4","","24.1","","99.97","","27","","","","Clear"
"2018-09-16 08:00","2018","09","16","08:00","22.8","","20.5","","87","","2","","5","","24.1","","99.98","","31","","","","NA"
"2018-09-16 09:00","2018","09","16","09:00","24.6","","20.7","","79","","5","","3","","24.1","","99.98","","33","","","","NA"
"2018-09-16 10:00","2018","09","16","10:00","26.4","","21.3","","73","","13","","9","","24.1","","99.96","","35","","","","Clear"
"2018-09-16 11:00","2018","09","16","11:00","28.1","","21.7","","68","","16","","8","","24.1","","99.94","","37","","","","NA"
"2018-09-16 12:00","2018","09","16","12:00","28.8","","21.1","","63","","13","","12","","24.1","","99.90","","37","","","","NA"
"2018-09-16 13:00","2018","09","16","13:00","28.6","","20.8","","62","","14","","12","","24.1","","99.86","","37","","","","Mainly Clear"
"2018-09-16 14:00","2018","09","16","14:00","28.5","","20.5","","61","","11","","9","","24.1","","99.78","","36","","","","NA"
"2018-09-16 15:00","2018","09","16","15:00","28.9","","19.3","","56","","12","","8","","24.1","","99.72","","36","","","","NA"
"2018-09-16 16:00","2018","09","16","16:00","28.7","","19.1","","55","","16","","12","","24.1","","99.66","","36","","","","Clear"
"2018-09-16 17:00","2018","09","16","17:00","27.3","","18.9","","60","","14","","15","","24.1","","99.65","","34","","","","NA"
"2018-09-16 18:00","2018","09","16","18:00","24.9","","19.2","","70","","13","","10","","24.1","","99.65","","32","","","","NA"
"2018-09-16 19:00","2018","09","16","19:00","22.9","","19.5","","81","","10","","9","","24.1","","99.64","","30","","","","Clear"
"2018-09-16 20:00","2018","09","16","20:00","22.4","","19.7","","85","","10","","9","","24.1","","99.66","","30","","","","NA"
"2018-09-16 21:00","2018","09","16","21:00","21.6","","20.0","","90","","4","","5","","24.1","","99.65","","29","","","","NA"
"2018-09-16 22:00","2018","09","16","22:00","20.6","","19.2","","92","","36","","3","","24.1","","99.62","","28","","","","Mainly Clear"
"2018-09-16 23:00","2018","09","16","23:00","19.3","","18.4","","95","","35","","4","","24.1","","99.58","","","","","","NA"
"2018-09-17 00:00","2018","09","17","00:00","19.4","","18.6","","95","","36","","3","","24.1","","99.55","","","","","","NA"
"2018-09-17 01:00","2018","09","17","01:00","19.1","","18.6","","97","","36","","3","","24.1","","99.50","","","","","","Clear"
"2018-09-17 02:00","2018","09","17","02:00","18.2","","17.8","","97","","1","","3","","24.1","","99.47","","","","","","NA"
"2018-09-17 03:00","2018","09","17","03:00","18.2","","17.9","","98","","33","","3","","24.1","","99.43","","","","","","NA"
"2018-09-17 04:00","2018","09","17","04:00","17.4","","17.1","","98","","36","","2","","24.1","","99.40","","","","","","Mainly Clear"
"2018-09-17 05:00","2018","09","17","05:00","17.8","","17.5","","98","","36","","3","","8.1","","99.38","","","","","","Fog"
"2018-09-17 06:00","2018","09","17","06:00","18.4","","18.2","","98","","7","","3","","0.0","","99.38","","","","","","Fog"
"2018-09-17 07:00","2018","09","17","07:00","19.1","","19.0","","99","","4","","4","","0.4","","99.40","","","","","","Fog"
"2018-09-17 08:00","2018","09","17","08:00","19.6","","19.5","","100","","4","","3","","0.4","","99.37","","","","","","Fog"
"2018-09-17 09:00","2018","09","17","09:00","20.6","","20.5","","100","","4","","4","","19.3","","99.33","","29","","","","NA"
"2018-09-17 10:00","2018","09","17","10:00","24.5","","20.8","","79","","13","","4","","24.1","","99.27","","33","","","","Mostly Cloudy"
"2018-09-17 11:00","2018","09","17","11:00","26.0","","20.9","","73","","36","","2","","24.1","","99.21","","34","","","","NA"
"2018-09-17 12:00","2018","09","17","12:00","27.5","","20.1","","63","","18","","13","","24.1","","99.14","","35","","","","NA"
"2018-09-17 13:00","2018","09","17","13:00","27.6","","20.9","","66","","17","","7","","24.1","","99.08","","36","","","","Mostly Cloudy"
"2018-09-17 14:00","2018","09","17","14:00","27.2","","20.1","","65","","17","","18","","24.1","","99.01","","35","","","","NA"
"2018-09-17 15:00","2018","09","17","15:00","26.0","","19.9","","69","","17","","16","","24.1","","98.94","","33","","","","NA"
"2018-09-17 16:00","2018","09","17","16:00","26.1","","20.0","","69","","19","","14","","24.1","","98.90","","34","","","","Mainly Clear"
"2018-09-17 17:00","2018","09","17","17:00","25.7","","19.2","","67","","19","","18","","24.1","","98.87","","33","","","","NA"
"2018-09-17 18:00","2018","09","17","18:00","24.3","","19.4","","73","","18","","12","","24.1","","98.82","","31","","","","NA"
"2018-09-17 19:00","2018","09","17","19:00","23.0","","19.2","","79","","18","","10","","24.1","","98.80","","30","","","","Mainly Clear"
"2018-09-17 20:00","2018","09","17","20:00","21.9","","19.3","","85","","17","","8","","24.1","","98.83","","29","","","","NA"
"2018-09-17 21:00","2018","09","17","21:00","21.0","","19.2","","89","","19","","3","","24.1","","98.85","","28","","","","NA"
"2018-09-17 22:00","2018","09","17","22:00","20.8","","19.3","","91","","17","","5","","24.1","","98.82","","28","","","","Clear"
"2018-09-17 23:00","2018","09","17","23:00","20.7","","19.4","","92","","19","","3","","24.1","","98.85","","28","","","","NA"
"2018-09-18 00:00","2018","09","18","00:00","19.7","","19.1","","96","","36","","1","","24.1","","98.81","","","","","","NA"
"2018-09-18 01:00","2018","09","18","01:00","18.0","","17.4","","96","","36","","2","","24.1","","98.79","","","","","","Clear"
"2018-09-18 02:00","2018","09","18","02:00","17.5","","17.1","","97","","33","","4","","24.1","","98.75","","","","","","NA"
"2018-09-18 03:00","2018","09","18","03:00","18.6","","17.8","","95","","36","","3","","24.1","","98.70","","","","","","NA"
"2018-09-18 04:00","2018","09","18","04:00","19.5","","18.5","","94","","36","","3","","24.1","","98.68","","","","","","Clear"
"2018-09-18 05:00","2018","09","18","05:00","19.5","","18.4","","93","","30","","4","","24.1","","98.68","","","","","","NA"
"2018-09-18 06:00","2018","09","18","06:00","19.4","","18.4","","94","","26","","4","","24.1","","98.70","","","","","","NA"
"2018-09-18 07:00","2018","09","18","07:00","20.4","","18.9","","91","","33","","13","","24.1","","98.76","","27","","","","Mainly Clear"
"2018-09-18 08:00","2018","09","18","08:00","21.1","","19.0","","88","","34","","19","","24.1","","98.76","","28","","","","NA"
"2018-09-18 09:00","2018","09","18","09:00","20.8","","18.6","","87","","34","","13","","24.1","","98.79","","27","","","","NA"
"2018-09-18 10:00","2018","09","18","10:00","23.1","","18.6","","76","","31","","13","","24.1","","98.78","","30","","","","Mostly Cloudy"
"2018-09-18 11:00","2018","09","18","11:00","24.1","","17.6","","67","","33","","22","","24.1","","98.79","","30","","","","NA"
"2018-09-18 12:00","2018","09","18","12:00","24.6","","17.3","","64","","32","","17","","24.1","","98.79","","30","","","","NA"
"2018-09-18 13:00","2018","09","18","13:00","25.4","","16.9","","59","","33","","15","","24.1","","98.74","","31","","","","Clear"
"2018-09-18 14:00","2018","09","18","14:00","25.8","","16.8","","57","","36","","17","","24.1","","98.71","","31","","","","NA"
"2018-09-18 15:00","2018","09","18","15:00","25.4","","17.5","","61","","35","","11","","24.1","","98.71","","31","","","","NA"
"2018-09-18 16:00","2018","09","18","16:00","24.0","","16.5","","62","","35","","20","","24.1","","98.75","","29","","","","Clear"
"2018-09-18 17:00","2018","09","18","17:00","21.3","","15.4","","69","","1","","21","","24.1","","98.78","","26","","","","NA"
"2018-09-18 18:00","2018","09","18","18:00","18.7","","14.6","","77","","35","","18","","24.1","","98.83","","","","","","NA"
"2018-09-18 19:00","2018","09","18","19:00","16.7","","13.9","","83","","34","","16","","24.1","","98.90","","","","","","Clear"
"2018-09-18 20:00","2018","09","18","20:00","15.3","","13.3","","87","","36","","20","","24.1","","98.97","","","","","","NA"
"2018-09-18 21:00","2018","09","18","21:00","14.6","","13.1","","91","","34","","10","","24.1","","98.97","","","","","","NA"
"2018-09-18 22:00","2018","09","18","22:00","14.5","","13.1","","91","","34","","13","","24.1","","99.00","","","","","","Mainly Clear"
"2018-09-18 23:00","2018","09","18","23:00","14.5","","13.1","","91","","35","","12","","24.1","","99.01","","","","","","NA"
"2018-09-19 00:00","2018","09","19","00:00","15.1","","13.3","","89","","33","","15","","24.1","","99.03","","","","","","NA"
"2018-09-19 01:00","2018","09","19","01:00","15.0","","13.3","","89","","35","","14","","24.1","","99.02","","","","","","Mostly Cloudy"
"2018-09-19 02:00","2018","09","19","02:00","14.8","","13.2","","90","","35","","17","","24.1","","99.04","","","","","","NA"
"2018-09-19 03:00","2018","09","19","03:00","14.7","","13.2","","91","","36","","16","","24.1","","99.07","","","","","","NA"
"2018-09-19 04:00","2018","09","19","04:00","13.8","","12.8","","93","","35","","11","","24.1","","99.14","","","","","","Mainly Clear"
"2018-09-19 05:00","2018","09","19","05:00","13.0","","12.3","","95","","1","","7","","24.1","","99.20","","","","","","NA"
"2018-09-19 06:00","2018","09","19","06:00","12.7","","11.9","","95","","2","","7","","24.1","","99.30","","","","","","NA"
"2018-09-19 07:00","2018","09","19","07:00","13.6","","12.5","","93","","1","","5","","24.1","","99.35","","","","","","Mainly Clear"
"2018-09-19 08:00","2018","09","19","08:00","14.4","","12.0","","86","","3","","13","","24.1","","99.42","","","","","","NA"
"2018-09-19 09:00","2018","09","19","09:00","16.1","","12.3","","78","","2","","11","","24.1","","99.44","","","","","","NA"
"2018-09-19 10:00","2018","09","19","10:00","16.1","","12.3","","78","","36","","10","","24.1","","99.47","","","","","","Mainly Clear"
"2018-09-19 11:00","2018","09","19","11:00","17.3","","12.8","","74","","1","","4","","24.1","","99.45","","","","","","NA"
"2018-09-19 12:00","2018","09","19","12:00","18.7","","11.9","","65","","4","","4","","24.1","","99.50","","","","","","NA"
"2018-09-19 13:00","2018","09","19","13:00","19.8","","12.3","","62","","35","","5","","24.1","","99.49","","","","","","Clear"
"2018-09-19 14:00","2018","09","19","14:00","20.2","","12.0","","59","","36","","7","","24.1","","99.44","","","","","","NA"
"2018-09-19 15:00","2018","09","19","15:00","20.9","","11.2","","53","","35","","16","","24.1","","99.46","","","","","","NA"
"2018-09-19 16:00","2018","09","19","16:00","20.4","","10.2","","52","","36","","10","","24.1","","99.44","","","","","","Mainly Clear"
"2018-09-19 17:00","2018","09","19","17:00","19.6","","11.5","","59","","3","","10","","24.1","","99.49","","","","","","NA"
"2018-09-19 18:00","2018","09","19","18:00","17.9","","11.9","","68","","4","","10","","24.1","","99.54","","","","","","NA"
"2018-09-19 19:00","2018","09","19","19:00","16.3","","11.6","","73","","3","","5","","24.1","","99.56","","","","","","Mostly Cloudy"
"2018-09-19 20:00","2018","09","19","20:00","15.9","","11.5","","75","","4","","3","","24.1","","99.62","","","","","","NA"
"2018-09-19 21:00","2018","09","19","21:00","13.9","","11.3","","84","","36","","2","","24.1","","99.65","","","","","","NA"
"2018-09-19 22:00","2018","09","19","22:00","13.9","","11.4","","84","","36","","4","","24.1","","99.68","","","","","","Mainly Clear"
"2018-09-19 23:00","2018","09","19","23:00","12.5","","11.2","","92","","34","","6","","24.1","","99.66","","","","","","NA"
"2018-09-20 00:00","2018","09","20","00:00","14.1","","12.8","","92","","2","","5","","24.1","","99.70","","","","","","NA"
"2018-09-20 01:00","2018","09","20","01:00","14.4","","12.7","","89","","10","","9","","24.1","","99.65","","","","","","Mainly Clear"
"2018-09-20 02:00","2018","09","20","02:00","13.4","","11.4","","87","","8","","5","","24.1","","99.64","","","","","","NA"
"2018-09-20 03:00","2018","09","20","03:00","12.8","","11.0","","88","","11","","4","","24.1","","99.65","","","","","","NA"
"2018-09-20 04:00","2018","09","20","04:00","12.9","","11.5","","91","","4","","7","","24.1","","99.68","","","","","","Mainly Clear"
"2018-09-20 05:00","2018","09","20","05:00","12.6","","11.0","","90","","4","","4","","24.1","","99.71","","","","","","NA"
"2018-09-20 06:00","2018","09","20","06:00","11.8","","10.7","","93","","3","","3","","24.1","","99.76","","","","","","NA"
"2018-09-20 07:00","2018","09","20","07:00","13.3","","11.1","","86","","8","","8","","24.1","","99.81","","","","","","Mostly Cloudy"
"2018-09-20 08:00","2018","09","20","08:00","15.0","","12.3","","84","","10","","10","","24.1","","99.85","","","","","","NA"
"2018-09-20 09:00","2018","09","20","09:00","16.2","","13.4","","83","","8","","15","","24.1","","99.92","","","","","","NA"
"2018-09-20 10:00","2018","09","20","10:00","16.9","","14.1","","84","","9","","17","","24.1","","99.92","","","","","","Cloudy"
"2018-09-20 11:00","2018","09","20","11:00","17.9","","13.9","","77","","14","","17","","24.1","","99.86","","","","","","NA"
"2018-09-20 12:00","2018","09","20","12:00","17.8","","13.6","","76","","13","","19","","24.1","","99.84","","","","","","NA"
"2018-09-20 13:00","2018","09","20","13:00","17.9","","13.3","","74","","11","","21","","24.1","","99.83","","","","","","Cloudy"
"2018-09-20 14:00","2018","09","20","14:00","17.5","","12.9","","74","","10","","17","","22.5","","99.72","","","","","","Rain Showers"
"2018-09-20 15:00","2018","09","20","15:00","17.1","","12.8","","76","","10","","14","","22.5","","99.72","","","","","","Rain Showers"
"2018-09-20 16:00","2018","09","20","16:00","17.1","","12.3","","73","","11","","18","","24.1","","99.66","","","","","","Cloudy"
"2018-09-20 17:00","2018","09","20","17:00","17.1","","12.2","","72","","11","","19","","24.1","","99.58","","","","","","NA"
"2018-09-20 18:00","2018","09","20","18:00","17.3","","13.0","","76","","10","","11","","24.1","","99.63","","","","","","NA"
"2018-09-20 19:00","2018","09","20","19:00","16.7","","12.5","","76","","10","","16","","24.1","","99.63","","","","","","Mostly Cloudy"
"2018-09-20 20:00","2018","09","20","20:00","16.1","","11.8","","75","","9","","14","","24.1","","99.62","","","","","","NA"
"2018-09-20 21:00","2018","09","20","21:00","15.8","","12.1","","79","","10","","19","","24.1","","99.52","","","","","","NA"
"2018-09-20 22:00","2018","09","20","22:00","16.0","","13.4","","85","","10","","12","","19.3","","99.41","","","","","","Cloudy"
"2018-09-20 23:00","2018","09","20","23:00","17.8","","15.5","","86","","13","","12","","19.3","","99.33","","","","","","NA"
"2018-09-21 00:00","2018","09","21","00:00","18.0","","16.0","","88","","12","","26","","24.1","","99.21","","","","","","NA"
"2018-09-21 01:00","2018","09","21","01:00","18.2","","16.7","","91","","12","","17","","24.1","","99.13","","","","","","Mostly Cloudy"
"2018-09-21 02:00","2018","09","21","02:00","18.4","","17.4","","94","","13","","17","","24.1","","99.05","","","","","","NA"
"2018-09-21 03:00","2018","09","21","03:00","18.3","","17.7","","96","","14","","6","","24.1","","98.97","","","","","","NA"
"2018-09-21 04:00","2018","09","21","04:00","18.3","","17.9","","97","","14","","4","","24.1","","98.91","","","","","","Mostly Cloudy"
"2018-09-21 05:00","2018","09","21","05:00","18.9","","18.2","","96","","17","","7","","24.1","","98.83","","","","","","NA"
"2018-09-21 06:00","2018","09","21","06:00","19.1","","18.3","","95","","15","","5","","24.1","","98.79","","","","","","NA"
"2018-09-21 07:00","2018","09","21","07:00","20.2","","19.2","","94","","17","","5","","24.1","","98.74","","27","","","","Mainly Clear"
"2018-09-21 08:00","2018","09","21","08:00","24.3","","21.4","","83","","21","","13","","24.1","","98.64","","33","","","","NA"
"2018-09-21 09:00","2018","09","21","09:00","26.8","","21.9","","74","","19","","18","","24.1","","98.58","","36","","","","NA"
"2018-09-21 10:00","2018","09","21","10:00","28.5","","21.7","","66","","20","","20","","24.1","","98.49","","38","","","","Mainly Clear"
"2018-09-21 11:00","2018","09","21","11:00","30.7","","21.2","","56","","21","","19","","24.1","","98.37","","39","","","","NA"
"2018-09-21 12:00","2018","09","21","12:00","31.4","","19.5","","49","","23","","40","","24.1","","98.26","","39","","","","NA"
"2018-09-21 13:00","2018","09","21","13:00","31.4","","19.2","","48","","23","","32","","24.1","","98.16","","38","","","","Mainly Clear"
"2018-09-21 14:00","2018","09","21","14:00","30.7","","18.6","","48","","23","","30","","24.1","","98.09","","37","","","","NA"
"2018-09-21 15:00","2018","09","21","15:00","30.0","","20.1","","55","","24","","37","","24.1","","98.07","","38","","","","NA"
"2018-09-21 16:00","2018","09","21","16:00","28.7","","19.2","","56","","24","","33","","19.3","","98.04","","36","","","","Thunderstorms,Rain Showers"
"2018-09-21 17:00","2018","09","21","17:00","23.5","","20.2","","81","","26","","24","","24.1","","98.14","","31","","","","NA"
"2018-09-21 18:00","2018","09","21","18:00","24.2","","15.6","","58","","29","","34","","24.1","","98.23","","29","","","","NA"
"2018-09-21 19:00","2018","09","21","19:00","23.4","","14.4","","56","","30","","30","","24.1","","98.36","","27","","","","Mainly Clear"
"2018-09-21 20:00","2018","09","21","20:00","20.2","","11.0","","55","","30","","27","","24.1","","98.68","","","","","","NA"
"2018-09-21 21:00","2018","09","21","21:00","18.8","","10.8","","59","","29","","22","","24.1","","98.85","","","","","","NA"
"2018-09-21 22:00","2018","09","21","22:00","16.5","","10.1","","66","","30","","25","","24.1","","99.07","","","","","","Mainly Clear"
"2018-09-21 23:00","2018","09","21","23:00","14.9","","7.6","","61","","32","","23","","24.1","","99.26","","","","","","NA"
"2018-09-22 00:00","2018","09","22","00:00","13.4","","6.4","","62","","32","","29","","24.1","","99.37","","","","","","NA"
"2018-09-22 01:00","2018","09","22","01:00","12.7","","6.7","","67","","32","","23","","24.1","","99.45","","","","","","Mainly Clear"
"2018-09-22 02:00","2018","09","22","02:00","11.8","","7.7","","76","","31","","25","","24.1","","99.56","","","","","","NA"
"2018-09-22 03:00","2018","09","22","03:00","11.1","","7.9","","80","","33","","20","","24.1","","99.64","","","","","","NA"
"2018-09-22 04:00","2018","09","22","04:00","10.3","","7.2","","81","","34","","7","","24.1","","99.79","","","","","","Mainly Clear"
"2018-09-22 05:00","2018","09","22","05:00","9.8","","5.8","","76","","33","","19","","24.1","","99.94","","","","","","NA"
"2018-09-22 06:00","2018","09","22","06:00","8.7","","4.5","","75","","34","","12","","24.1","","100.08","","","","","","NA"
"2018-09-22 07:00","2018","09","22","07:00","9.0","","4.5","","73","","1","","11","","24.1","","100.16","","","","","","Mostly Cloudy"
"2018-09-22 08:00","2018","09","22","08:00","10.1","","5.1","","71","","36","","20","","24.1","","100.20","","","","","","NA"
"2018-09-22 09:00","2018","09","22","09:00","11.1","","5.6","","69","","1","","16","","24.1","","100.21","","","","","","NA"
"2018-09-22 10:00","2018","09","22","10:00","12.2","","5.0","","61","","35","","22","","24.1","","100.26","","","","","","Mostly Cloudy"
"2018-09-22 11:00","2018","09","22","11:00","13.4","","5.4","","58","","34","","18","","24.1","","100.27","","","","","","NA"
"2018-09-22 12:00","2018","09","22","12:00","13.8","","4.6","","54","","","","0","","24.1","","100.22","","","","","","NA"
"2018-09-22 13:00","2018","09","22","13:00","15.0","","4.5","","49","","35","","4","","24.1","","100.17","","","","","","Mostly Cloudy"
"2018-09-22 14:00","2018","09","22","14:00","16.2","","5.3","","48","","36","","2","","24.1","","100.11","","","","","","NA"
"2018-09-22 15:00","2018","09","22","15:00","16.7","","5.6","","48","","1","","12","","24.1","","100.07","","","","","","NA"
"2018-09-22 16:00","2018","09","22","16:00","16.5","","5.5","","48","","33","","9","","24.1","","100.03","","","","","","Mostly Cloudy"
"2018-09-22 17:00","2018","09","22","17:00","14.6","","6.7","","59","","18","","15","","24.1","","100.03","","","","","","NA"
"2018-09-22 18:00","2018","09","22","18:00","13.0","","6.9","","66","","18","","16","","24.1","","100.04","","","","","","NA"
"2018-09-22 19:00","2018","09","22","19:00","11.4","","7.2","","75","","19","","10","","24.1","","100.04","","","","","","Mainly Clear"
"2018-09-22 20:00","2018","09","22","20:00","11.8","","7.1","","73","","36","","3","","24.1","","100.04","","","","","","NA"
"2018-09-22 21:00","2018","09","22","21:00","10.3","","7.2","","81","","1","","3","","24.1","","100.04","","","","","","NA"
"2018-09-22 22:00","2018","09","22","22:00","8.8","","6.5","","85","","4","","5","","24.1","","100.03","","","","","","Mainly Clear"
"2018-09-22 23:00","2018","09","22","23:00","8.8","","6.8","","87","","36","","2","","24.1","","100.04","","","","","","NA"
"2018-09-23 00:00","2018","09","23","00:00","8.2","","6.7","","90","","36","","3","","24.1","","100.01","","","","","","NA"
"2018-09-23 01:00","2018","09","23","01:00","7.7","","5.8","","88","","8","","3","","24.1","","99.98","","","","","","Clear"
"2018-09-23 02:00","2018","09","23","02:00","7.3","","6.2","","93","","35","","6","","24.1","","99.99","","","","","","NA"
"2018-09-23 03:00","2018","09","23","03:00","6.7","","5.7","","93","","33","","3","","24.1","","100.00","","","","","","NA"
"2018-09-23 04:00","2018","09","23","04:00","6.2","","5.3","","94","","34","","6","","24.1","","100.02","","","","","","Clear"
"2018-09-23 05:00","2018","09","23","05:00","6.5","","5.7","","94","","36","","3","","24.1","","100.02","","","","","","NA"
"2018-09-23 06:00","2018","09","23","06:00","5.6","","4.6","","93","","2","","5","","24.1","","99.99","","","","","","NA"
"2018-09-23 07:00","2018","09","23","07:00","7.7","","6.6","","93","","36","","1","","24.1","","100.03","","","","","","Clear"
"2018-09-23 08:00","2018","09","23","08:00","10.6","","7.7","","82","","3","","4","","24.1","","100.08","","","","","","NA"
"2018-09-23 09:00","2018","09","23","09:00","13.9","","8.0","","67","","36","","2","","24.1","","100.13","","","","","","NA"
"2018-09-23 10:00","2018","09","23","10:00","16.4","","7.8","","56","","36","","3","","24.1","","100.14","","","","","","Clear"
"2018-09-23 11:00","2018","09","23","11:00","16.6","","6.2","","50","","36","","1","","24.1","","100.11","","","","","","NA"
"2018-09-23 12:00","2018","09","23","12:00","17.6","","7.2","","50","","36","","2","","24.1","","100.05","","","","","","NA"
"2018-09-23 13:00","2018","09","23","13:00","19.3","","7.6","","46","","30","","6","","24.1","","100.00","","","","","","Clear"
"2018-09-23 14:00","2018","09","23","14:00","19.7","","9.4","","51","","11","","12","","24.1","","99.96","","","","","","NA"
"2018-09-23 15:00","2018","09","23","15:00","19.0","","9.8","","55","","11","","16","","24.1","","99.96","","","","","","NA"
"2018-09-23 16:00","2018","09","23","16:00","18.4","","9.6","","56","","16","","14","","24.1","","99.99","","","","","","Clear"
"2018-09-23 17:00","2018","09","23","17:00","16.8","","9.6","","62","","15","","9","","24.1","","100.04","","","","","","NA"
"2018-09-23 18:00","2018","09","23","18:00","15.1","","9.4","","68","","13","","10","","24.1","","100.09","","","","","","NA"
"2018-09-23 19:00","2018","09","23","19:00","14.1","","9.9","","76","","7","","5","","24.1","","100.12","","","","","","Clear"
"2018-09-23 20:00","2018","09","23","20:00","13.1","","10.0","","82","","4","","5","","24.1","","100.19","","","","","","NA"
"2018-09-23 21:00","2018","09","23","21:00","11.9","","9.7","","86","","3","","8","","24.1","","100.25","","","","","","NA"
"2018-09-23 22:00","2018","09","23","22:00","11.3","","9.4","","88","","4","","7","","24.1","","100.27","","","","","","Clear"
"2018-09-23 23:00","2018","09","23","23:00","11.1","","9.2","","88","","5","","9","","24.1","","100.32","","","","","","NA"
"2018-09-24 00:00","2018","09","24","00:00","10.7","","9.0","","89","","6","","9","","24.1","","100.36","","","","","","NA"
"2018-09-24 01:00","2018","09","24","01:00","9.6","","7.7","","88","","8","","17","","24.1","","100.42","","","","","","Mainly Clear"
"2018-09-24 02:00","2018","09","24","02:00","9.1","","7.3","","89","","8","","11","","24.1","","100.45","","","","","","NA"
"2018-09-24 03:00","2018","09","24","03:00","8.8","","6.5","","86","","7","","13","","24.1","","100.48","","","","","","NA"
"2018-09-24 04:00","2018","09","24","04:00","8.7","","5.8","","82","","8","","17","","24.1","","100.48","","","","","","Cloudy"
"2018-09-24 05:00","2018","09","24","05:00","8.7","","5.8","","82","","8","","18","","24.1","","100.50","","","","","","NA"
"2018-09-24 06:00","2018","09","24","06:00","8.6","","5.9","","83","","7","","15","","24.1","","100.56","","","","","","NA"
"2018-09-24 07:00","2018","09","24","07:00","8.6","","5.8","","82","","9","","18","","24.1","","100.57","","","","","","Cloudy"
"2018-09-24 08:00","2018","09","24","08:00","8.8","","5.8","","81","","10","","19","","24.1","","100.59","","","","","","NA"
"2018-09-24 09:00","2018","09","24","09:00","9.7","","6.5","","81","","9","","17","","24.1","","100.59","","","","","","NA"
"2018-09-24 10:00","2018","09","24","10:00","11.7","","8.3","","80","","9","","16","","24.1","","100.55","","","","","","Cloudy"
"2018-09-24 11:00","2018","09","24","11:00","13.6","","10.3","","80","","10","","23","","24.1","","100.48","","","","","","NA"
"2018-09-24 12:00","2018","09","24","12:00","16.0","","11.6","","75","","10","","26","","24.1","","100.38","","","","","","NA"
"2018-09-24 13:00","2018","09","24","13:00","16.9","","12.3","","74","","11","","27","","24.1","","100.32","","","","","","Mostly Cloudy"
"2018-09-24 14:00","2018","09","24","14:00","18.2","","13.2","","72","","12","","20","","24.1","","100.27","","","","","","NA"
"2018-09-24 15:00","2018","09","24","15:00","17.3","","12.7","","74","","12","","18","","24.1","","100.22","","","","","","NA"
"2018-09-24 16:00","2018","09","24","16:00","17.5","","12.7","","73","","13","","24","","24.1","","100.14","","","","","","Mostly Cloudy"
"2018-09-24 17:00","2018","09","24","17:00","16.9","","12.6","","75","","12","","20","","24.1","","100.12","","","","","","NA"
"2018-09-24 18:00","2018","09","24","18:00","17.0","","13.1","","78","","10","","21","","24.1","","100.08","","","","","","NA"
"2018-09-24 19:00","2018","09","24","19:00","17.4","","14.2","","81","","11","","19","","24.1","","100.03","","","","","","Cloudy"
"2018-09-24 20:00","2018","09","24","20:00","17.7","","15.1","","84","","12","","16","","24.1","","100.03","","","","","","NA"
"2018-09-24 21:00","2018","09","24","21:00","18.1","","14.6","","80","","14","","16","","24.1","","99.98","","","","","","NA"
"2018-09-24 22:00","2018","09","24","22:00","18.1","","13.7","","75","","14","","20","","24.1","","99.98","","","","","","Cloudy"
"2018-09-24 23:00","2018","09","24","23:00","16.9","","14.5","","86","","14","","19","","16.1","","99.96","","","","","","Rain"
"2018-09-25 00:00","2018","09","25","00:00","15.4","","14.6","","95","","15","","14","","16.1","","99.91","","","","","","Rain"
"2018-09-25 01:00","2018","09","25","01:00","15.2","","14.6","","96","","14","","16","","12.9","","99.85","","","","","","Rain"
"2018-09-25 02:00","2018","09","25","02:00","15.3","","14.9","","97","","15","","22","","9.7","","99.78","","","","","","Rain,Fog"
"2018-09-25 03:00","2018","09","25","03:00","15.7","","14.9","","95","","16","","17","","6.4","","99.70","","","","","","Rain,Fog"
"2018-09-25 04:00","2018","09","25","04:00","15.3","","14.8","","96","","17","","19","","16.1","","99.64","","","","","","Rain,Fog"
"2018-09-25 05:00","2018","09","25","05:00","15.4","","14.9","","96","","15","","16","","12.9","","99.61","","","","","","Rain"
"2018-09-25 06:00","2018","09","25","06:00","15.4","","14.9","","97","","15","","13","","4.8","","99.56","","","","","","Rain,Fog"
"2018-09-25 07:00","2018","09","25","07:00","15.6","","15.1","","97","","15","","19","","12.9","","99.51","","","","","","Rain"
"2018-09-25 08:00","2018","09","25","08:00","15.8","","15.5","","98","","15","","11","","4.0","","99.45","","","","","","Rain,Fog"
"2018-09-25 09:00","2018","09","25","09:00","16.4","","16.1","","98","","14","","12","","4.0","","99.43","","","","","","Rain,Fog"
"2018-09-25 10:00","2018","09","25","10:00","17.0","","16.8","","98","","16","","15","","3.2","","99.37","","","","","","Rain,Fog"
"2018-09-25 11:00","2018","09","25","11:00","17.7","","17.4","","98","","17","","13","","3.2","","99.30","","","","","","Rain,Fog"
"2018-09-25 12:00","2018","09","25","12:00","18.3","","18.1","","98","","17","","13","","8.1","","99.25","","","","","","Fog"
"2018-09-25 13:00","2018","09","25","13:00","19.1","","18.7","","98","","18","","16","","19.3","","99.23","","","","","","Cloudy"
"2018-09-25 14:00","2018","09","25","14:00","19.5","","19.1","","97","","19","","16","","16.1","","99.16","","","","","","NA"
"2018-09-25 15:00","2018","09","25","15:00","20.1","","19.6","","97","","18","","14","","9.7","","99.08","","27","","","","Drizzle"
"2018-09-25 16:00","2018","09","25","16:00","19.8","","19.3","","97","","19","","17","","3.2","","99.05","","","","","","Drizzle,Fog"
"2018-09-25 17:00","2018","09","25","17:00","19.9","","19.6","","98","","19","","17","","16.1","","99.01","","","","","","NA"
"2018-09-25 18:00","2018","09","25","18:00","20.2","","19.6","","96","","18","","16","","19.3","","98.94","","27","","","","NA"
"2018-09-25 19:00","2018","09","25","19:00","20.4","","19.6","","95","","19","","16","","24.1","","98.96","","28","","","","Cloudy"
"2018-09-25 20:00","2018","09","25","20:00","20.5","","19.7","","95","","19","","15","","24.1","","98.92","","28","","","","NA"
"2018-09-25 21:00","2018","09","25","21:00","20.7","","19.9","","95","","19","","13","","19.3","","98.86","","28","","","","NA"
"2018-09-25 22:00","2018","09","25","22:00","20.7","","20.0","","96","","20","","22","","16.1","","98.83","","28","","","","Rain"
"2018-09-25 23:00","2018","09","25","23:00","20.4","","20.0","","97","","21","","17","","16.1","","98.75","","28","","","","Rain"
"2018-09-26 00:00","2018","09","26","00:00","20.8","","20.3","","97","","20","","22","","19.3","","98.66","","29","","","","Rain"
"2018-09-26 01:00","2018","09","26","01:00","20.2","","19.6","","97","","18","","23","","16.1","","98.45","","27","","","","Cloudy"
"2018-09-26 02:00","2018","09","26","02:00","21.1","","20.2","","95","","21","","17","","19.3","","98.46","","29","","","","NA"
"2018-09-26 03:00","2018","09","26","03:00","21.0","","20.2","","95","","20","","10","","24.1","","98.44","","29","","","","NA"
"2018-09-26 04:00","2018","09","26","04:00","20.9","","20.1","","95","","20","","13","","19.3","","98.41","","29","","","","Rain"
"2018-09-26 05:00","2018","09","26","05:00","21.1","","20.2","","94","","22","","9","","24.1","","98.43","","29","","","","NA"
"2018-09-26 06:00","2018","09","26","06:00","21.2","","19.3","","89","","22","","11","","24.1","","98.47","","28","","","","NA"
"2018-09-26 07:00","2018","09","26","07:00","20.9","","18.6","","87","","23","","9","","24.1","","98.48","","27","","","","Mostly Cloudy"
"2018-09-26 08:00","2018","09","26","08:00","20.9","","17.7","","82","","25","","12","","24.1","","98.50","","27","","","","NA"
"2018-09-26 09:00","2018","09","26","09:00","21.2","","17.1","","77","","29","","17","","24.1","","98.54","","27","","","","NA"
"2018-09-26 10:00","2018","09","26","10:00","18.6","","15.0","","79","","33","","27","","24.1","","98.61","","","","","","Cloudy"
"2018-09-26 11:00","2018","09","26","11:00","18.8","","13.2","","70","","31","","17","","24.1","","98.70","","","","","","NA"
"2018-09-26 12:00","2018","09","26","12:00","18.2","","11.8","","66","","29","","25","","24.1","","98.77","","","","","","NA"
"2018-09-26 13:00","2018","09","26","13:00","19.5","","10.2","","55","","29","","25","","24.1","","98.82","","","","","","Mostly Cloudy"
"2018-09-26 14:00","2018","09","26","14:00","18.4","","8.8","","53","","29","","20","","24.1","","98.86","","","","","","NA"
"2018-09-26 15:00","2018","09","26","15:00","17.7","","7.2","","50","","32","","32","","24.1","","98.98","","","","","","NA"
"2018-09-26 16:00","2018","09","26","16:00","17.4","","7.2","","51","","31","","18","","24.1","","99.08","","","","","","Mostly Cloudy"
"2018-09-26 17:00","2018","09","26","17:00","17.5","","7.7","","52","","31","","13","","24.1","","99.13","","","","","","NA"
"2018-09-26 18:00","2018","09","26","18:00","15.8","","7.7","","58","","29","","19","","24.1","","99.17","","","","","","NA"
"2018-09-26 19:00","2018","09","26","19:00","14.0","","8.6","","70","","32","","18","","24.1","","99.29","","","","","","Mainly Clear"
"2018-09-26 20:00","2018","09","26","20:00","12.8","","8.5","","75","","32","","15","","24.1","","99.40","","","","","","NA"
"2018-09-26 21:00","2018","09","26","21:00","11.9","","7.8","","76","","32","","7","","24.1","","99.45","","","","","","NA"
"2018-09-26 22:00","2018","09","26","22:00","11.2","","7.6","","78","","36","","1","","24.1","","99.51","","","","","","Clear"
"2018-09-26 23:00","2018","09","26","23:00","10.8","","8.1","","83","","24","","4","","24.1","","99.61","","","","","","NA"
"2018-09-27 00:00","2018","09","27","00:00","11.1","","8.0","","81","","23","","4","","24.1","","99.62","","","","","","NA"
"2018-09-27 01:00","2018","09","27","01:00","11.0","","8.6","","85","","36","","1","","24.1","","99.62","","","","","","Mostly Cloudy"
"2018-09-27 02:00","2018","09","27","02:00","11.2","","8.9","","86","","32","","4","","24.1","","99.67","","","","","","NA"
"2018-09-27 03:00","2018","09","27","03:00","10.8","","9.0","","89","","36","","2","","24.1","","99.68","","","","","","NA"
"2018-09-27 04:00","2018","09","27","04:00","9.5","","8.3","","92","","34","","5","","24.1","","99.71","","","","","","Mainly Clear"
"2018-09-27 05:00","2018","09","27","05:00","9.0","","7.6","","91","","0","","1","","24.1","","99.71","","","","","","NA"
"2018-09-27 06:00","2018","09","27","06:00","8.4","","7.2","","92","","36","","1","","24.1","","99.75","","","","","","NA"
"2018-09-27 07:00","2018","09","27","07:00","7.8","","6.7","","93","","36","","1","","24.1","","99.78","","","","","","Mostly Cloudy"
"2018-09-27 08:00","2018","09","27","08:00","10.7","","8.9","","89","","36","","3","","24.1","","99.79","","","","","","NA"
"2018-09-27 09:00","2018","09","27","09:00","13.7","","7.9","","68","","18","","10","","24.1","","99.81","","","","","","NA"
"2018-09-27 10:00","2018","09","27","10:00","15.4","","7.0","","57","","17","","3","","24.1","","99.79","","","","","","Mostly Cloudy"
"2018-09-27 11:00","2018","09","27","11:00","16.0","","6.2","","52","","18","","9","","24.1","","99.73","","","","","","NA"
"2018-09-27 12:00","2018","09","27","12:00","17.2","","7.8","","54","","19","","13","","24.1","","99.69","","","","","","NA"
"2018-09-27 13:00","2018","09","27","13:00","16.5","","7.7","","56","","16","","14","","24.1","","99.57","","","","","","Cloudy"
"2018-09-27 14:00","2018","09","27","14:00","16.9","","8.9","","59","","13","","19","","24.1","","99.52","","","","","","NA"
"2018-09-27 15:00","2018","09","27","15:00","16.4","","9.5","","64","","13","","16","","24.1","","99.50","","","","","","NA"
"2018-09-27 16:00","2018","09","27","16:00","15.7","","8.2","","61","","14","","14","","24.1","","99.46","","","","","","Cloudy"
"2018-09-27 17:00","2018","09","27","17:00","14.9","","9.2","","68","","12","","13","","24.1","","99.40","","","","","","NA"
"2018-09-27 18:00","2018","09","27","18:00","14.4","","9.9","","74","","13","","19","","24.1","","99.35","","","","","","NA"
"2018-09-27 19:00","2018","09","27","19:00","13.9","","10.4","","79","","11","","10","","24.1","","99.31","","","","","","Cloudy"
"2018-09-27 20:00","2018","09","27","20:00","13.4","","10.9","","85","","8","","8","","24.1","","99.28","","","","","","NA"
"2018-09-27 21:00","2018","09","27","21:00","13.0","","11.2","","89","","7","","5","","24.1","","99.24","","","","","","NA"
"2018-09-27 22:00","2018","09","27","22:00","12.8","","11.2","","90","","9","","7","","24.1","","99.22","","","","","","Cloudy"
"2018-09-27 23:00","2018","09","27","23:00","12.3","","11.0","","92","","36","","4","","24.1","","99.25","","","","","","NA"
"2018-09-28 00:00","2018","09","28","00:00","11.6","","10.4","","93","","36","","1","","24.1","","99.20","","","","","","NA"
"2018-09-28 01:00","2018","09","28","01:00","11.1","","10.3","","95","","2","","3","","24.1","","99.19","","","","","","Mostly Cloudy"
"2018-09-28 02:00","2018","09","28","02:00","11.2","","10.6","","96","","1","","4","","24.1","","99.22","","","","","","NA"
"2018-09-28 03:00","2018","09","28","03:00","10.0","","9.4","","96","","3","","3","","24.1","","99.17","","","","","","NA"
"2018-09-28 04:00","2018","09","28","04:00","10.0","","9.6","","97","","33","","5","","24.1","","99.19","","","","","","Mostly Cloudy"
"2018-09-28 05:00","2018","09","28","05:00","10.1","","9.6","","97","","33","","3","","24.1","","99.20","","","","","","NA"
"2018-09-28 06:00","2018","09","28","06:00","9.4","","8.9","","97","","0","","1","","24.1","","99.22","","","","","","NA"
"2018-09-28 07:00","2018","09","28","07:00","10.8","","10.2","","96","","","","0","","24.1","","99.25","","","","","","Mostly Cloudy"
"2018-09-28 08:00","2018","09","28","08:00","14.3","","10.7","","78","","22","","11","","24.1","","99.26","","","","","","NA"
"2018-09-28 09:00","2018","09","28","09:00","16.5","","9.2","","62","","20","","14","","24.1","","99.21","","","","","","NA"
"2018-09-28 10:00","2018","09","28","10:00","18.2","","8.2","","52","","24","","14","","24.1","","99.22","","","","","","Mainly Clear"
"2018-09-28 11:00","2018","09","28","11:00","19.5","","8.3","","48","","23","","21","","24.1","","99.21","","","","","","NA"
"2018-09-28 12:00","2018","09","28","12:00","21.1","","9.4","","47","","21","","17","","24.1","","99.17","","","","","","NA"
"2018-09-28 13:00","2018","09","28","13:00","22.2","","8.7","","42","","20","","23","","24.1","","99.15","","","","","","Mainly Clear"
"2018-09-28 14:00","2018","09","28","14:00","22.1","","7.2","","38","","25","","19","","24.1","","99.12","","","","","","NA"
"2018-09-28 15:00","2018","09","28","15:00","21.0","","10.2","","50","","28","","24","","24.1","","99.15","","","","","","NA"
"2018-09-28 16:00","2018","09","28","16:00","18.2","","10.3","","60","","30","","14","","24.1","","99.22","","","","","","Mostly Cloudy"
"2018-09-28 17:00","2018","09","28","17:00","15.0","","10.1","","72","","32","","17","","24.1","","99.33","","","","","","NA"
"2018-09-28 18:00","2018","09","28","18:00","13.6","","9.8","","78","","32","","20","","22.5","","99.38","","","","","","Rain Showers"
"2018-09-28 19:00","2018","09","28","19:00","13.4","","8.0","","69","","31","","13","","24.1","","99.45","","","","","","Cloudy"
"2018-09-28 20:00","2018","09","28","20:00","11.8","","9.1","","83","","28","","13","","12.9","","99.55","","","","","","Rain Showers"
"2018-09-28 21:00","2018","09","28","21:00","10.9","","9.4","","90","","27","","5","","12.9","","99.56","","","","","","Rain Showers"
"2018-09-28 22:00","2018","09","28","22:00","10.6","","9.4","","92","","23","","7","","12.9","","99.63","","","","","","Rain Showers"
"2018-09-28 23:00","2018","09","28","23:00","10.5","","9.5","","93","","25","","9","","12.9","","99.67","","","","","","Rain Showers"
"2018-09-29 00:00","2018","09","29","00:00","10.5","","9.1","","91","","28","","4","","12.9","","99.63","","","","","","Rain Showers"
"2018-09-29 01:00","2018","09","29","01:00","10.3","","9.3","","93","","19","","10","","16.1","","99.67","","","","","","Rain Showers"
"2018-09-29 02:00","2018","09","29","02:00","10.3","","9.6","","96","","21","","9","","24.1","","99.75","","","","","","NA"
"2018-09-29 03:00","2018","09","29","03:00","9.5","","8.6","","94","","24","","10","","24.1","","99.76","","","","","","NA"
"2018-09-29 04:00","2018","09","29","04:00","8.8","","7.7","","93","","24","","7","","24.1","","99.81","","","","","","Clear"
"2018-09-29 05:00","2018","09","29","05:00","8.4","","7.5","","94","","25","","7","","24.1","","99.86","","","","","","NA"
"2018-09-29 06:00","2018","09","29","06:00","8.0","","7.3","","95","","25","","7","","24.1","","99.90","","","","","","NA"
"2018-09-29 07:00","2018","09","29","07:00","8.7","","7.9","","95","","26","","9","","24.1","","99.94","","","","","","Mainly Clear"
"2018-09-29 08:00","2018","09","29","08:00","10.2","","8.0","","86","","26","","7","","24.1","","99.98","","","","","","NA"
"2018-09-29 09:00","2018","09","29","09:00","12.1","","7.3","","72","","27","","11","","24.1","","100.00","","","","","","NA"
"2018-09-29 10:00","2018","09","29","10:00","13.7","","6.5","","61","","26","","13","","24.1","","100.05","","","","","","Mainly Clear"
"2018-09-29 11:00","2018","09","29","11:00","14.4","","3.9","","49","","27","","15","","24.1","","100.02","","","","","","NA"
"2018-09-29 12:00","2018","09","29","12:00","14.6","","3.8","","48","","28","","14","","24.1","","100.06","","","","","","NA"
"2018-09-29 13:00","2018","09","29","13:00","14.6","","3.4","","47","","30","","13","","24.1","","100.02","","","","","","Mostly Cloudy"
"2018-09-29 14:00","2018","09","29","14:00","15.4","","2.5","","42","","28","","12","","24.1","","100.02","","","","","","NA"
"2018-09-29 15:00","2018","09","29","15:00","16.2","","2.2","","39","","32","","19","","24.1","","100.05","","","","","","NA"
"2018-09-29 16:00","2018","09","29","16:00","15.7","","2.8","","41","","29","","16","","24.1","","100.00","","","","","","Mainly Clear"
"2018-09-29 17:00","2018","09","29","17:00","14.2","","3.1","","47","","28","","17","","24.1","","100.04","","","","","","NA"
"2018-09-29 18:00","2018","09","29","18:00","13.0","","2.8","","50","","30","","12","","24.1","","100.08","","","","","","NA"
"2018-09-29 19:00","2018","09","29","19:00","11.6","","3.1","","56","","29","","8","","24.1","","100.13","","","","","","Mainly Clear"
"2018-09-29 20:00","2018","09","29","20:00","10.6","","3.6","","62","","31","","10","","24.1","","100.18","","","","","","NA"
"2018-09-29 21:00","2018","09","29","21:00","9.9","","3.8","","66","","32","","7","","24.1","","100.22","","","","","","NA"
"2018-09-29 22:00","2018","09","29","22:00","8.5","","4.0","","73","","34","","8","","24.1","","100.23","","","","","","Mainly Clear"
"2018-09-29 23:00","2018","09","29","23:00","8.5","","4.3","","74","","34","","5","","24.1","","100.23","","","","","","NA"
"2018-09-30 00:00","2018","09","30","00:00","8.3","","4.3","","76","","35","","7","","24.1","","100.24","","","","","","NA"
"2018-09-30 01:00","2018","09","30","01:00","8.5","","4.4","","75","","36","","1","","24.1","","100.26","","","","","","Cloudy"
"2018-09-30 02:00","2018","09","30","02:00","8.5","","4.4","","75","","33","","6","","24.1","","100.27","","","","","","NA"
"2018-09-30 03:00","2018","09","30","03:00","8.8","","5.0","","77","","0","","1","","24.1","","100.28","","","","","","NA"
"2018-09-30 04:00","2018","09","30","04:00","8.8","","5.4","","79","","22","","4","","24.1","","100.31","","","","","","Cloudy"
"2018-09-30 05:00","2018","09","30","05:00","9.0","","5.0","","76","","36","","3","","22.5","","100.34","","","","","","Rain Showers"
"2018-09-30 06:00","2018","09","30","06:00","8.7","","6.2","","84","","36","","2","","24.1","","100.33","","","","","","NA"
"2018-09-30 07:00","2018","09","30","07:00","9.5","","5.1","","74","","17","","4","","24.1","","100.29","","","","","","Cloudy"
"2018-09-30 08:00","2018","09","30","08:00","10.0","","5.3","","72","","25","","3","","24.1","","100.31","","","","","","NA"
"2018-09-30 09:00","2018","09","30","09:00","11.6","","5.7","","67","","23","","11","","24.1","","100.27","","","","","","NA"
"2018-09-30 10:00","2018","09","30","10:00","11.8","","5.5","","65","","25","","9","","24.1","","100.29","","","","","","Cloudy"
"2018-09-30 11:00","2018","09","30","11:00","11.9","","6.1","","68","","25","","5","","24.1","","100.25","","","","","","NA"
"2018-09-30 12:00","2018","09","30","12:00","12.3","","5.6","","64","","25","","6","","24.1","","100.22","","","","","","NA"
"2018-09-30 13:00","2018","09","30","13:00","12.0","","6.2","","68","","21","","9","","24.1","","100.17","","","","","","Cloudy"
"2018-09-30 14:00","2018","09","30","14:00","11.9","","6.6","","70","","20","","5","","24.1","","100.13","","","","","","NA"
"2018-09-30 15:00","2018","09","30","15:00","11.9","","6.8","","71","","27","","4","","24.1","","100.08","","","","","","NA"
"2018-09-30 16:00","2018","09","30","16:00","11.6","","7.3","","75","","35","","11","","24.1","","100.05","","","","","","Cloudy"
"2018-09-30 17:00","2018","09","30","17:00","10.9","","8.0","","82","","2","","11","","24.1","","100.05","","","","","","NA"
"2018-09-30 18:00","2018","09","30","18:00","10.6","","8.1","","85","","3","","12","","24.1","","100.05","","","","","","NA"
"2018-09-30 19:00","2018","09","30","19:00","10.3","","8.2","","87","","1","","13","","24.1","","100.08","","","","","","Cloudy"
"2018-09-30 20:00","2018","09","30","20:00","10.2","","8.1","","87","","5","","8","","22.5","","100.02","","","","","","NA"
"2018-09-30 21:00","2018","09","30","21:00","10.2","","8.0","","86","","36","","12","","17.7","","100.11","","","","","","Rain"
"2018-09-30 22:00","2018","09","30","22:00","9.3","","8.6","","95","","4","","9","","9.7","","100.11","","","","","","Rain Showers,Fog"
"2018-09-30 23:00","2018","09","30","23:00","9.4","","8.9","","97","","2","","8","","9.7","","100.12","","","","","","Rain,Fog"
